{"type":"FeatureCollection","features":[{"type":"Feature","properties":{"name":"Almirante Brown","osmRelation":2402606,"source":"OpenStreetMap contributors"},"geometry":{"type":"MultiPolygon","coordinates":[[[[-58.4477603,-34.82595],[-58.4471888,-34.8267252],[-58.4467114,-34.827367],[-58.4465163,-34.8276257],[-58.4461977,-34.8280688],[-58.4457178,-34.8287207],[-58.4448873,-34.829852],[-58.444382,-34.8305525],[-58.4438849,-34.8312072],[-58.443423,-34.8318677],[-58.4429441,-34.8325221],[-58.4424358,-34.8332186],[-58.4422857,-34.833427],[-58.4420164,-34.8337939],[-58.4415913,-34.8343776],[-58.4410168,-34.8351527],[-58.4404697,-34.8359108],[-58.4402065,-34.8362605],[-58.4398391,-34.836777],[-58.4390752,-34.8378149],[-58.4383785,-34.8387689],[-58.4378137,-34.8395568],[-58.4373699,-34.8401639],[-58.4369428,-34.8407499],[-58.4361041,-34.8419236],[-58.435425,-34.84285],[-58.4347363,-34.8437893],[-58.4315819,-34.8480921],[-58.4304743,-34.8496259],[-58.4254578,-34.8564556],[-58.4189795,-34.8654883],[-58.4171557,-34.8679984],[-58.4160431,-34.8695105],[-58.4133645,-34.8731972],[-58.4130215,-34.8735696],[-58.4125982,-34.8741526],[-58.4121844,-34.8747225],[-58.4117594,-34.8753079],[-58.4113327,-34.8758956],[-58.4109125,-34.8764744],[-58.4104954,-34.8770489],[-58.4100762,-34.8776262],[-58.4096544,-34.8782072],[-58.4092289,-34.8787932],[-58.4087968,-34.8793884],[-58.4087705,-34.8794687],[-58.4102307,-34.8801802],[-58.4105659,-34.8803467],[-58.4116866,-34.8809035],[-58.4124316,-34.8812736],[-58.4131106,-34.881611],[-58.4145581,-34.8823301],[-58.415382,-34.8827394],[-58.4159587,-34.8830259],[-58.4154943,-34.8836607],[-58.4150734,-34.8842362],[-58.4148118,-34.8845938],[-58.4146537,-34.884823],[-58.414145,-34.8855053],[-58.4136848,-34.8861345],[-58.4133369,-34.88661],[-58.4132471,-34.8867327],[-58.4129236,-34.8871728],[-58.412867,-34.8872523],[-58.4124353,-34.8878425],[-58.4120588,-34.8883572],[-58.4117307,-34.8888056],[-58.4116744,-34.8888826],[-58.4116059,-34.8889762],[-58.4103931,-34.8906341],[-58.4092839,-34.8921924],[-58.4085312,-34.8932186],[-58.4082153,-34.8936816],[-58.4081844,-34.8937211],[-58.4076457,-34.8944386],[-58.4071343,-34.8951545],[-58.4067754,-34.8956926],[-58.4066974,-34.8957487],[-58.4062264,-34.8964414],[-58.4060783,-34.8966574],[-58.405491,-34.8974296],[-58.4054161,-34.897508],[-58.4047133,-34.898484],[-58.4039848,-34.899467],[-58.4033096,-34.9004526],[-58.4024821,-34.9016225],[-58.4017429,-34.9026779],[-58.4015827,-34.9029185],[-58.4011892,-34.9034319],[-58.4007141,-34.9040952],[-58.39879,-34.9066376],[-58.398039,-34.9076881],[-58.3972943,-34.9087053],[-58.3964336,-34.9098951],[-58.3948881,-34.9091354],[-58.39415,-34.9087559],[-58.3937904,-34.9085787],[-58.3933583,-34.9083658],[-58.3921625,-34.9077766],[-58.3916138,-34.9075006],[-58.3910926,-34.9072392],[-58.3908478,-34.907128],[-58.3907774,-34.9071039],[-58.3907363,-34.9070893],[-58.3904831,-34.9070038],[-58.3899326,-34.9067813],[-58.3897824,-34.9067134],[-58.3896711,-34.9066583],[-58.3883307,-34.9059939],[-58.388084,-34.9058673],[-58.3879935,-34.9058217],[-58.3872726,-34.9054586],[-58.3868661,-34.9052563],[-58.3867939,-34.9052202],[-58.3855998,-34.9046238],[-58.3854332,-34.9045433],[-58.3853567,-34.9045056],[-58.3841976,-34.9039341],[-58.3839736,-34.9038219],[-58.3836496,-34.9036495],[-58.3831391,-34.9034001],[-58.382556,-34.9030959],[-58.382541,-34.9030893],[-58.3824937,-34.9030683],[-58.3824234,-34.9030473],[-58.3824399,-34.9028611],[-58.3823509,-34.9028332],[-58.3822366,-34.9027915],[-58.3821934,-34.9027795],[-58.3821116,-34.9027595],[-58.3819385,-34.9027226],[-58.3818098,-34.9026996],[-58.3816964,-34.9026681],[-58.3816762,-34.9026625],[-58.3816077,-34.9026325],[-58.3815579,-34.9026106],[-58.3806506,-34.9021504],[-58.3805341,-34.9020913],[-58.3803543,-34.9020053],[-58.3794044,-34.9015295],[-58.3793023,-34.9014783],[-58.3788923,-34.9012818],[-58.3780951,-34.9008679],[-58.3775047,-34.900582],[-58.3774292,-34.9005454],[-58.3770669,-34.9003603],[-58.3760378,-34.8998493],[-58.3760047,-34.8998328],[-58.3759763,-34.8998187],[-58.3758872,-34.8997744],[-58.3750686,-34.899367],[-58.374949,-34.8993075],[-58.3744715,-34.8990738],[-58.3737767,-34.8987085],[-58.3737099,-34.8986751],[-58.3730297,-34.8983353],[-58.3729815,-34.8983112],[-58.3726168,-34.8981322],[-58.3725095,-34.898079],[-58.3717981,-34.8977264],[-58.3715723,-34.8976161],[-58.3714855,-34.8975737],[-58.3714109,-34.8975357],[-58.3713358,-34.8974982],[-58.3702783,-34.89697],[-58.3701734,-34.8969177],[-58.3700418,-34.8968506],[-58.3689662,-34.8963149],[-58.3688825,-34.8962735],[-58.368572,-34.8961196],[-58.3678827,-34.8957684],[-58.3677701,-34.8957111],[-58.367107,-34.8953783],[-58.3666605,-34.8951552],[-58.3665428,-34.8950964],[-58.3656614,-34.8946623],[-58.3649682,-34.8942904],[-58.3649205,-34.8942411],[-58.3649049,-34.8941972],[-58.3649022,-34.8941626],[-58.3648849,-34.8941121],[-58.3648475,-34.8940805],[-58.3647516,-34.8940325],[-58.3640741,-34.8936982],[-58.3633994,-34.8933611],[-58.3633156,-34.8933192],[-58.3629157,-34.8931271],[-58.3625455,-34.892944],[-58.3625005,-34.8929223],[-58.3618552,-34.8926122],[-58.3617712,-34.8925718],[-58.3615438,-34.8924624],[-58.361075,-34.8922304],[-58.3610084,-34.8921974],[-58.3609413,-34.892163],[-58.360726,-34.8920528],[-58.3602987,-34.891842],[-58.3602354,-34.8918107],[-58.3598324,-34.8916215],[-58.3594616,-34.8914354],[-58.3593859,-34.8913983],[-58.3587154,-34.8910696],[-58.3583689,-34.8909044],[-58.3580038,-34.8907214],[-58.3579155,-34.8906771],[-58.3571975,-34.8903272],[-58.3571299,-34.8902943],[-58.3563699,-34.8899175],[-58.3563057,-34.8898892],[-58.3556012,-34.889547],[-58.3525746,-34.8880738],[-58.3505026,-34.8870471],[-58.3499065,-34.8867535],[-58.3488428,-34.8862278],[-58.3484221,-34.8860224],[-58.3482793,-34.8859527],[-58.346438,-34.8850538],[-58.3463232,-34.885023],[-58.3459489,-34.885538],[-58.3456324,-34.8859734],[-58.3456091,-34.8860056],[-58.3452674,-34.8864757],[-58.3449317,-34.8869376],[-58.3446032,-34.8873895],[-58.3442633,-34.8878571],[-58.3442314,-34.8879009],[-58.3439313,-34.8883166],[-58.3435939,-34.8887789],[-58.3432462,-34.8892565],[-58.3431447,-34.889396],[-58.3429163,-34.8897056],[-58.3425839,-34.8901676],[-58.3422271,-34.8906585],[-58.3415556,-34.8902991],[-58.3410225,-34.890013],[-58.3404453,-34.8897066],[-58.3400526,-34.8894967],[-58.3394699,-34.8891875],[-58.3389041,-34.8888873],[-58.3383451,-34.8885907],[-58.3382351,-34.8885323],[-58.3377985,-34.888298],[-58.3374815,-34.8881279],[-58.3372297,-34.8879928],[-58.3362731,-34.8874738],[-58.3325787,-34.885503],[-58.3318512,-34.8851297],[-58.3288729,-34.8835308],[-58.3249479,-34.8814132],[-58.3233565,-34.8805676],[-58.3193154,-34.8784203],[-58.3185827,-34.8780309],[-58.3171886,-34.8772901],[-58.312548,-34.8747887],[-58.3144968,-34.8720091],[-58.3151385,-34.8710856],[-58.3171325,-34.8682157],[-58.3112464,-34.8650586],[-58.3063886,-34.8624529],[-58.3009668,-34.859473],[-58.3008568,-34.8594125],[-58.3002715,-34.8590892],[-58.2997123,-34.8587791],[-58.2991838,-34.858486],[-58.2983798,-34.8580402],[-58.297369,-34.8575171],[-58.2947015,-34.8561252],[-58.293902,-34.8556875],[-58.2931619,-34.8552823],[-58.292433,-34.8548732],[-58.2955002,-34.8509705],[-58.2955733,-34.8508589],[-58.2956364,-34.8507602],[-58.2957731,-34.8505486],[-58.3025825,-34.8419038],[-58.3027397,-34.8417268],[-58.3028335,-34.84164],[-58.307193,-34.836547],[-58.3091475,-34.8343423],[-58.3172663,-34.8250321],[-58.3215748,-34.8272517],[-58.3221513,-34.8264179],[-58.322389,-34.826074],[-58.322575,-34.8258051],[-58.3231925,-34.8249235],[-58.3232469,-34.8248458],[-58.3237571,-34.8241767],[-58.3252506,-34.8219969],[-58.3252963,-34.8219436],[-58.3253168,-34.8219196],[-58.3249207,-34.8216716],[-58.3245143,-34.8214171],[-58.323694,-34.8210371],[-58.3234477,-34.820923],[-58.3225917,-34.8204902],[-58.3236112,-34.8194402],[-58.3226827,-34.8189617],[-58.3228511,-34.8187297],[-58.3229825,-34.8185691],[-58.3234604,-34.817942],[-58.3236334,-34.8176779],[-58.3242608,-34.8168694],[-58.3243139,-34.8168008],[-58.3248705,-34.8160879],[-58.3249874,-34.8159441],[-58.3254694,-34.8153329],[-58.3255882,-34.8151746],[-58.3261127,-34.8145234],[-58.3261699,-34.8144456],[-58.3267344,-34.8137051],[-58.3274364,-34.8127687],[-58.3280649,-34.811952],[-58.3281802,-34.8118029],[-58.3287024,-34.8111037],[-58.3290707,-34.8106335],[-58.329417,-34.810153],[-58.3296623,-34.8098267],[-58.3298944,-34.8095055],[-58.3304188,-34.8088207],[-58.3308967,-34.8081907],[-58.3309527,-34.8081145],[-58.3314319,-34.8074737],[-58.3315405,-34.8073357],[-58.3319272,-34.8068254],[-58.332166,-34.8065186],[-58.3327913,-34.8057302],[-58.3319679,-34.8052765],[-58.3312144,-34.8048844],[-58.3310025,-34.8047682],[-58.3308604,-34.8046626],[-58.3305564,-34.8044978],[-58.3301195,-34.8042628],[-58.3300757,-34.8042325],[-58.3299945,-34.8041764],[-58.328674,-34.8034651],[-58.3274043,-34.802909],[-58.3263682,-34.802325],[-58.3262296,-34.8022698],[-58.3252132,-34.8017165],[-58.3241203,-34.8011095],[-58.3230245,-34.8004939],[-58.3225809,-34.8002652],[-58.3218769,-34.799878],[-58.3212711,-34.7995577],[-58.3209227,-34.7993679],[-58.3207539,-34.7992693],[-58.3199836,-34.7988599],[-58.3196492,-34.7986758],[-58.3183986,-34.7979961],[-58.3183328,-34.7979645],[-58.3182695,-34.7979383],[-58.3168056,-34.7971548],[-58.3166749,-34.7970644],[-58.3165841,-34.7970099],[-58.3157937,-34.7965805],[-58.3151085,-34.7962131],[-58.314298,-34.7957714],[-58.3132132,-34.7951865],[-58.3127979,-34.7949613],[-58.3122011,-34.7946454],[-58.3112722,-34.7941371],[-58.3097963,-34.7933282],[-58.3102658,-34.7926843],[-58.3107443,-34.792029],[-58.3112813,-34.7912972],[-58.3113419,-34.791216],[-58.3115714,-34.7908974],[-58.3119997,-34.7903208],[-58.3124068,-34.7897385],[-58.3128279,-34.7891556],[-58.3132467,-34.7885725],[-58.313667,-34.7879911],[-58.3140742,-34.7874168],[-58.3144927,-34.786837],[-58.3149005,-34.7862529],[-58.3153327,-34.7856748],[-58.3156571,-34.7852347],[-58.3157689,-34.785073],[-58.3161643,-34.784512],[-58.3165844,-34.7839243],[-58.317025,-34.7833109],[-58.3174116,-34.7826658],[-58.317487,-34.7825521],[-58.3177882,-34.7820364],[-58.3178744,-34.7818992],[-58.3181589,-34.7814306],[-58.3183101,-34.7811951],[-58.3187546,-34.7804649],[-58.3191518,-34.7798127],[-58.3193182,-34.7795298],[-58.3207012,-34.7770775],[-58.3211268,-34.7765017],[-58.3214897,-34.7759842],[-58.3215459,-34.7759049],[-58.3219521,-34.7753156],[-58.3222972,-34.7748242],[-58.3223375,-34.7747708],[-58.3227584,-34.7741182],[-58.3231647,-34.7734782],[-58.3233013,-34.7732714],[-58.3233577,-34.7731609],[-58.3234207,-34.7730023],[-58.3234429,-34.7729325],[-58.3234801,-34.7728284],[-58.323498,-34.7727889],[-58.3235425,-34.7727194],[-58.3239875,-34.7719795],[-58.3241236,-34.7717609],[-58.3244388,-34.7712497],[-58.3249442,-34.7704053],[-58.3249889,-34.7703335],[-58.3256033,-34.7693381],[-58.3260597,-34.768592],[-58.3261179,-34.7684959],[-58.3264592,-34.7679618],[-58.3265774,-34.7677782],[-58.3266397,-34.7676904],[-58.3267164,-34.7675822],[-58.3267338,-34.7675568],[-58.3268053,-34.7674523],[-58.3273316,-34.7667631],[-58.3278283,-34.766104],[-58.3278787,-34.7660367],[-58.3280649,-34.7657826],[-58.3284336,-34.7653103],[-58.3288681,-34.764745],[-58.3289211,-34.764675],[-58.3290646,-34.7644864],[-58.3294471,-34.7639783],[-58.3298553,-34.7634368],[-58.3299342,-34.7633377],[-58.3303966,-34.7627081],[-58.3308844,-34.7620702],[-58.33093,-34.7620122],[-58.3314102,-34.761368],[-58.3315614,-34.7611861],[-58.3318642,-34.7607855],[-58.3319316,-34.7606971],[-58.3320488,-34.760546],[-58.3325645,-34.7598774],[-58.333009,-34.7592988],[-58.3331127,-34.759159],[-58.3331924,-34.7590516],[-58.3338058,-34.7582391],[-58.3343682,-34.7575011],[-58.3344559,-34.757386],[-58.335036,-34.7566045],[-58.3356831,-34.7557672],[-58.3357319,-34.7556941],[-58.3363254,-34.7548292],[-58.3366663,-34.7543133],[-58.3367523,-34.754341],[-58.3374544,-34.7547278],[-58.338121,-34.7550803],[-58.3388273,-34.7554722],[-58.3395236,-34.7558566],[-58.3403367,-34.7562909],[-58.3411628,-34.7567411],[-58.3417267,-34.7570412],[-58.3420169,-34.7572007],[-58.3425261,-34.7574665],[-58.3430679,-34.7577745],[-58.3433203,-34.757912],[-58.3440969,-34.7583267],[-58.3450112,-34.7588148],[-58.3450619,-34.7588423],[-58.3463046,-34.7595155],[-58.3464082,-34.759548],[-58.3465094,-34.7595767],[-58.3465578,-34.7596009],[-58.3478085,-34.7602277],[-58.3491732,-34.7609247],[-58.3504989,-34.7615837],[-58.3506373,-34.7616567],[-58.3512361,-34.7619666],[-58.3520888,-34.7623783],[-58.3524212,-34.7625511],[-58.3531401,-34.7629093],[-58.3542641,-34.7634896],[-58.3554774,-34.7641],[-58.356462,-34.7645999],[-58.3574225,-34.7650931],[-58.3583946,-34.7655627],[-58.3593759,-34.7660753],[-58.3603319,-34.7665568],[-58.3610814,-34.7669483],[-58.3619941,-34.7674096],[-58.3613218,-34.7682413],[-58.3606349,-34.7690371],[-58.3599489,-34.769841],[-58.3592994,-34.7706291],[-58.3586916,-34.7713504],[-58.3600598,-34.7720512],[-58.3611891,-34.7726238],[-58.3622532,-34.7731689],[-58.3622973,-34.7731922],[-58.3623392,-34.773214],[-58.3625115,-34.7733055],[-58.3632221,-34.7736682],[-58.3644036,-34.774271],[-58.3655423,-34.7748483],[-58.3666587,-34.7754144],[-58.3676769,-34.7759286],[-58.3677938,-34.7759875],[-58.3688974,-34.7765493],[-58.3690186,-34.7766145],[-58.3700266,-34.7771355],[-58.3703671,-34.777305],[-58.3711472,-34.7776971],[-58.3717165,-34.7779868],[-58.3722861,-34.7782715],[-58.3730788,-34.7786802],[-58.373411,-34.778835],[-58.3744628,-34.7793623],[-58.3745585,-34.7794136],[-58.375689,-34.7799896],[-58.3757912,-34.7800473],[-58.3763598,-34.7803657],[-58.3766175,-34.7804978],[-58.3771239,-34.7807833],[-58.3774416,-34.7809508],[-58.3784603,-34.78151],[-58.3797047,-34.7821784],[-58.3799491,-34.7823034],[-58.3810344,-34.7829017],[-58.3813986,-34.7831067],[-58.3823272,-34.7836035],[-58.3827291,-34.7838272],[-58.3831937,-34.784084],[-58.3839005,-34.7844834],[-58.3848312,-34.7849755],[-58.3857211,-34.7854654],[-58.3867061,-34.786023],[-58.3867791,-34.7860624],[-58.3876951,-34.7865622],[-58.3890741,-34.7872986],[-58.3891864,-34.7873541],[-58.390366,-34.7880043],[-58.3908643,-34.7882828],[-58.3910348,-34.788372],[-58.3919267,-34.7888281],[-58.3923392,-34.7890595],[-58.3927446,-34.7892889],[-58.3929306,-34.7894006],[-58.393684,-34.7898156],[-58.3947735,-34.7903791],[-58.3949943,-34.7904933],[-58.3956396,-34.7908269],[-58.3964176,-34.7912761],[-58.3975836,-34.7919133],[-58.3986317,-34.7924905],[-58.3997157,-34.7930531],[-58.4007144,-34.7936155],[-58.4011176,-34.7938275],[-58.4015081,-34.7940328],[-58.4018817,-34.7942293],[-58.402005,-34.7942942],[-58.4022281,-34.794423],[-58.4022951,-34.794457],[-58.4023897,-34.794503],[-58.4026122,-34.7946248],[-58.4033481,-34.7950535],[-58.4041146,-34.7954594],[-58.4051391,-34.7960204],[-58.4060952,-34.7965325],[-58.4069751,-34.7970146],[-58.4078341,-34.7974796],[-58.4083771,-34.7977555],[-58.4084235,-34.7977795],[-58.4084637,-34.7977995],[-58.4090997,-34.798142],[-58.4102391,-34.7987617],[-58.4097818,-34.799349],[-58.4096587,-34.7995154],[-58.4090975,-34.8002599],[-58.4088614,-34.800559],[-58.4086534,-34.8008316],[-58.4085592,-34.8009688],[-58.4085274,-34.8010152],[-58.4084907,-34.8010583],[-58.4084539,-34.8010794],[-58.4083905,-34.8011038],[-58.4083135,-34.8011075],[-58.407976,-34.8010713],[-58.4079009,-34.8010729],[-58.4078309,-34.8010809],[-58.4077884,-34.8011521],[-58.4073816,-34.8017097],[-58.4068033,-34.8024777],[-58.4066186,-34.8027272],[-58.4061049,-34.8034136],[-58.4056604,-34.8040041],[-58.4052572,-34.8045153],[-58.4051706,-34.8046407],[-58.4074673,-34.8057714],[-58.4084003,-34.8062309],[-58.4085656,-34.8063151],[-58.4094828,-34.8067726],[-58.4095919,-34.8068271],[-58.4104221,-34.8072363],[-58.4104774,-34.8072635],[-58.4113503,-34.8076938],[-58.4122764,-34.8081637],[-58.413217,-34.808627],[-58.413858,-34.8089487],[-58.4142378,-34.8091387],[-58.4142554,-34.8091477],[-58.4145162,-34.8092816],[-58.4150031,-34.8095201],[-58.4153552,-34.8096908],[-58.4161135,-34.8100622],[-58.4161579,-34.8100856],[-58.4169662,-34.8104884],[-58.4177391,-34.8108748],[-58.4178506,-34.8109304],[-58.4188726,-34.8114413],[-58.4190603,-34.8115373],[-58.4199598,-34.8119848],[-58.4209178,-34.8124636],[-58.4219381,-34.8129736],[-58.4227698,-34.8133899],[-58.4235217,-34.8137617],[-58.4246691,-34.8143324],[-58.425014,-34.8145053],[-58.4261084,-34.8150516],[-58.4275505,-34.8157787],[-58.4284023,-34.8162046],[-58.4291936,-34.8165926],[-58.4295624,-34.8167875],[-58.429602,-34.8168139],[-58.4296227,-34.8168324],[-58.4296461,-34.8168598],[-58.4296651,-34.8168911],[-58.4297374,-34.8168896],[-58.4297939,-34.8168978],[-58.429834,-34.8169091],[-58.4302719,-34.8171199],[-58.4303363,-34.8171512],[-58.4304366,-34.8172031],[-58.430503,-34.8172355],[-58.430556,-34.8172613],[-58.4307234,-34.8173435],[-58.4315164,-34.8177274],[-58.4316255,-34.8177794],[-58.4318431,-34.8178854],[-58.4325154,-34.8182203],[-58.4330863,-34.8185047],[-58.4334094,-34.8186656],[-58.4343924,-34.8191552],[-58.434768,-34.8193423],[-58.4355861,-34.8197498],[-58.436048,-34.8199799],[-58.436979,-34.8204469],[-58.4380056,-34.8209587],[-58.4381895,-34.8210531],[-58.4387965,-34.8213432],[-58.4394666,-34.8216768],[-58.4395919,-34.8217392],[-58.4404594,-34.8221691],[-58.4407476,-34.8223067],[-58.4414542,-34.82266],[-58.4416434,-34.8227542],[-58.4423586,-34.8231082],[-58.4424262,-34.8231412],[-58.4432778,-34.8235575],[-58.443409,-34.823621],[-58.4444562,-34.8241469],[-58.4452725,-34.8245457],[-58.4458099,-34.8248083],[-58.4461317,-34.8249655],[-58.4469952,-34.8253874],[-58.4471012,-34.8254404],[-58.4473497,-34.8255814],[-58.4474275,-34.8256291],[-58.4475115,-34.8256971],[-58.4477603,-34.82595]]]]}}]}