{"type":"FeatureCollection","features":[{"type":"Feature","properties":{"name":"Adrogué","osmRelation":2532350,"osmName":"Adrogué","source":"OpenStreetMap contributors"},"geometry":{"type":"MultiPolygon","coordinates":[[[[-58.4102391,-34.7987617],[-58.4097818,-34.799349],[-58.4096587,-34.7995154],[-58.4090975,-34.8002599],[-58.4088614,-34.800559],[-58.4086534,-34.8008316],[-58.4085592,-34.8009688],[-58.4085274,-34.8010152],[-58.4084907,-34.8010583],[-58.4084539,-34.8010794],[-58.4083905,-34.8011038],[-58.4083135,-34.8011075],[-58.407976,-34.8010713],[-58.4079009,-34.8010729],[-58.4078309,-34.8010809],[-58.4077884,-34.8011521],[-58.4073816,-34.8017097],[-58.4068033,-34.8024777],[-58.4066186,-34.8027272],[-58.4061049,-34.8034136],[-58.4056604,-34.8040041],[-58.4052572,-34.8045153],[-58.4051706,-34.8046407],[-58.404987,-34.8048867],[-58.404961,-34.8049213],[-58.4049158,-34.8049825],[-58.4045389,-34.8054497],[-58.4039205,-34.8062701],[-58.4032615,-34.8071426],[-58.4031903,-34.8072486],[-58.4030494,-34.8074433],[-58.4029918,-34.807523],[-58.402964,-34.8075635],[-58.4028932,-34.8076593],[-58.4025705,-34.8080869],[-58.402151,-34.8086702],[-58.4014811,-34.8095502],[-58.4009573,-34.8102636],[-58.4008887,-34.8103532],[-58.4005224,-34.8108448],[-58.400489,-34.8108839],[-58.4004611,-34.8109498],[-58.4003576,-34.8110779],[-58.4001388,-34.8113796],[-58.3999158,-34.8116558],[-58.3995253,-34.8121349],[-58.3988872,-34.8129395],[-58.3983881,-34.8135512],[-58.3979617,-34.8140536],[-58.3978693,-34.814172],[-58.3977989,-34.8142648],[-58.3977045,-34.8143986],[-58.3973271,-34.8149636],[-58.3967492,-34.8157853],[-58.3957345,-34.8172576],[-58.3955992,-34.817186],[-58.3947379,-34.8167504],[-58.3942057,-34.8164845],[-58.3929974,-34.8158653],[-58.3924962,-34.815611],[-58.3922269,-34.8154829],[-58.3920564,-34.8153959],[-58.3909362,-34.8148092],[-58.3905394,-34.8145908],[-58.3902959,-34.8144624],[-58.3899525,-34.8142799],[-58.3891867,-34.8138991],[-58.3888801,-34.8137448],[-58.3875992,-34.8130784],[-58.3868889,-34.8127161],[-58.386175,-34.8123506],[-58.3852622,-34.811871],[-58.3851109,-34.8118039],[-58.3846307,-34.8115547],[-58.3844186,-34.8114443],[-58.3835593,-34.8110049],[-58.3827152,-34.8105752],[-58.3818893,-34.8101418],[-58.3815403,-34.8099671],[-58.3808584,-34.8096104],[-58.3801305,-34.8092394],[-58.379641,-34.808983],[-58.3787921,-34.8085426],[-58.3781208,-34.8081993],[-58.3778518,-34.8080608],[-58.3776752,-34.8079762],[-58.3772228,-34.8077366],[-58.3759465,-34.8070608],[-58.3758543,-34.8070127],[-58.3751814,-34.8066712],[-58.3745163,-34.8063201],[-58.3736376,-34.8058682],[-58.3735319,-34.8058147],[-58.3736217,-34.8056621],[-58.3740194,-34.8050199],[-58.3745233,-34.8042332],[-58.3751031,-34.8032729],[-58.3758233,-34.8021215],[-58.3764736,-34.8010686],[-58.3771332,-34.8000543],[-58.3778763,-34.7989468],[-58.3779732,-34.7987866],[-58.3788641,-34.7976947],[-58.3795327,-34.7968999],[-58.379948,-34.7964034],[-58.3804887,-34.7957568],[-58.3810102,-34.795149],[-58.3821141,-34.7938622],[-58.3830069,-34.7928512],[-58.3832036,-34.7926194],[-58.3839452,-34.7916296],[-58.3841737,-34.7913223],[-58.3842121,-34.7912698],[-58.3842349,-34.79122],[-58.3843256,-34.7910692],[-58.3848988,-34.7903173],[-58.3849644,-34.7902286],[-58.385186,-34.7899314],[-58.3856049,-34.7893709],[-58.3863061,-34.7884443],[-58.3870076,-34.7875101],[-58.3876951,-34.7865622],[-58.3890741,-34.7872986],[-58.3891864,-34.7873541],[-58.390366,-34.7880043],[-58.3908643,-34.7882828],[-58.3910348,-34.788372],[-58.3919267,-34.7888281],[-58.3923392,-34.7890595],[-58.3927446,-34.7892889],[-58.3929306,-34.7894006],[-58.393684,-34.7898156],[-58.3947735,-34.7903791],[-58.3949943,-34.7904933],[-58.3956396,-34.7908269],[-58.3964176,-34.7912761],[-58.3975836,-34.7919133],[-58.3986317,-34.7924905],[-58.3997157,-34.7930531],[-58.4007144,-34.7936155],[-58.4011176,-34.7938275],[-58.4015081,-34.7940328],[-58.4018817,-34.7942293],[-58.402005,-34.7942942],[-58.4022281,-34.794423],[-58.4022951,-34.794457],[-58.4023897,-34.794503],[-58.4026122,-34.7946248],[-58.4033481,-34.7950535],[-58.4041146,-34.7954594],[-58.4051391,-34.7960204],[-58.4060952,-34.7965325],[-58.4069751,-34.7970146],[-58.4078341,-34.7974796],[-58.4083771,-34.7977555],[-58.4084235,-34.7977795],[-58.4084637,-34.7977995],[-58.4090997,-34.798142],[-58.4102391,-34.7987617]]]]}},{"type":"Feature","properties":{"name":"Burzaco","osmRelation":2532299,"osmName":"Burzaco","source":"OpenStreetMap contributors"},"geometry":{"type":"MultiPolygon","coordinates":[[[[-58.4402065,-34.8362605],[-58.4398391,-34.836777],[-58.4390752,-34.8378149],[-58.4383785,-34.8387689],[-58.4378137,-34.8395568],[-58.4373699,-34.8401639],[-58.4369428,-34.8407499],[-58.4361041,-34.8419236],[-58.435425,-34.84285],[-58.4347363,-34.8437893],[-58.4315819,-34.8480921],[-58.4304743,-34.8496259],[-58.4254578,-34.8564556],[-58.424261,-34.8558811],[-58.4226487,-34.8550519],[-58.4214929,-34.8544813],[-58.4174452,-34.8524482],[-58.4175956,-34.8522296],[-58.4140575,-34.8504572],[-58.4138071,-34.850351],[-58.4024887,-34.8450999],[-58.4023483,-34.8450429],[-58.4021464,-34.8449609],[-58.4013621,-34.8445861],[-58.4012555,-34.8445375],[-58.4011308,-34.8444795],[-58.3988377,-34.8476177],[-58.3985004,-34.8480912],[-58.3983978,-34.848232],[-58.3961622,-34.847186],[-58.3953442,-34.8468067],[-58.3946241,-34.846456],[-58.3939335,-34.8461178],[-58.393218,-34.8457617],[-58.3925425,-34.8454191],[-58.3919055,-34.8451053],[-58.3918487,-34.845069],[-58.3912487,-34.844752],[-58.3911338,-34.844694],[-58.390693,-34.8444887],[-58.390551,-34.8444317],[-58.390422,-34.8443899],[-58.3902361,-34.8443439],[-58.3901273,-34.8443126],[-58.3894889,-34.8441676],[-58.3893266,-34.8441494],[-58.3891085,-34.8441408],[-58.3890603,-34.8441402],[-58.3888877,-34.8441415],[-58.3889344,-34.8437749],[-58.3889846,-34.8434034],[-58.3872305,-34.8426156],[-58.3809576,-34.8400841],[-58.3807397,-34.8404035],[-58.3803513,-34.8409776],[-58.3791532,-34.84038],[-58.3788498,-34.8402172],[-58.3780307,-34.8397885],[-58.3779763,-34.83976],[-58.377936,-34.839739],[-58.3771287,-34.8393177],[-58.3765829,-34.8390339],[-58.3763234,-34.8389124],[-58.3754564,-34.8384663],[-58.3750962,-34.8382784],[-58.3746731,-34.8380614],[-58.3738469,-34.8376265],[-58.3728298,-34.837118],[-58.3723544,-34.8368701],[-58.3718029,-34.8365838],[-58.3708464,-34.8360754],[-58.3705173,-34.8359206],[-58.3699606,-34.8356362],[-58.3696314,-34.8354668],[-58.3687257,-34.8349961],[-58.3680126,-34.8346245],[-58.3674115,-34.8343335],[-58.3666148,-34.8339179],[-58.3658183,-34.8335119],[-58.3651083,-34.833136],[-58.3639896,-34.8325625],[-58.3630268,-34.8320557],[-58.3629282,-34.8320017],[-58.3630746,-34.8312845],[-58.3632221,-34.8305609],[-58.3635108,-34.8290808],[-58.3636532,-34.8283857],[-58.3638036,-34.8276306],[-58.3638717,-34.8272689],[-58.3640293,-34.8265749],[-58.3643355,-34.8249929],[-58.3645219,-34.8240825],[-58.3647163,-34.8230323],[-58.3649548,-34.8218347],[-58.3651462,-34.8209145],[-58.365229,-34.8207909],[-58.3653793,-34.8199899],[-58.3654938,-34.8194244],[-58.3655441,-34.8191732],[-58.3656321,-34.8187547],[-58.3657832,-34.8179886],[-58.3659637,-34.8170103],[-58.366018,-34.8167199],[-58.3661766,-34.8157879],[-58.3661851,-34.8157194],[-58.366185,-34.8156634],[-58.3661792,-34.8155735],[-58.3661691,-34.8154549],[-58.3660898,-34.8146619],[-58.366078,-34.814543],[-58.366058,-34.814341],[-58.365974,-34.8135577],[-58.3658603,-34.8125649],[-58.3658068,-34.8120895],[-58.365756,-34.811597],[-58.3656533,-34.8106188],[-58.3655649,-34.8098797],[-58.3655369,-34.8096042],[-58.3661749,-34.8099543],[-58.3671991,-34.8105021],[-58.3672779,-34.8105444],[-58.3686106,-34.8112746],[-58.370005,-34.8120592],[-58.3703594,-34.8115214],[-58.3704428,-34.811388],[-58.3707003,-34.8109777],[-58.3708439,-34.8107464],[-58.3710825,-34.8103915],[-58.3712605,-34.8101045],[-58.3716585,-34.8094717],[-58.372013,-34.808863],[-58.3720453,-34.8088068],[-58.3725343,-34.8077733],[-58.3725699,-34.8076954],[-58.3728053,-34.8072375],[-58.3730508,-34.8067611],[-58.3734937,-34.805887],[-58.3735319,-34.8058147],[-58.3736376,-34.8058682],[-58.3745163,-34.8063201],[-58.3751814,-34.8066712],[-58.3758543,-34.8070127],[-58.3759465,-34.8070608],[-58.3772228,-34.8077366],[-58.3776752,-34.8079762],[-58.3778518,-34.8080608],[-58.3781208,-34.8081993],[-58.3787921,-34.8085426],[-58.379641,-34.808983],[-58.3801305,-34.8092394],[-58.3808584,-34.8096104],[-58.3815403,-34.8099671],[-58.3818893,-34.8101418],[-58.3827152,-34.8105752],[-58.3835593,-34.8110049],[-58.3844186,-34.8114443],[-58.3846307,-34.8115547],[-58.3851109,-34.8118039],[-58.3852622,-34.811871],[-58.386175,-34.8123506],[-58.3868889,-34.8127161],[-58.3875992,-34.8130784],[-58.3888801,-34.8137448],[-58.3891867,-34.8138991],[-58.3899525,-34.8142799],[-58.3902959,-34.8144624],[-58.3905394,-34.8145908],[-58.3909362,-34.8148092],[-58.3920564,-34.8153959],[-58.3922269,-34.8154829],[-58.3924962,-34.815611],[-58.3929974,-34.8158653],[-58.3942057,-34.8164845],[-58.3947379,-34.8167504],[-58.3955992,-34.817186],[-58.3957345,-34.8172576],[-58.3967492,-34.8157853],[-58.3973271,-34.8149636],[-58.3977045,-34.8143986],[-58.3977989,-34.8142648],[-58.3978693,-34.814172],[-58.3990081,-34.8147365],[-58.4000919,-34.8152735],[-58.4012265,-34.8158364],[-58.4019658,-34.8162009],[-58.4027039,-34.8165738],[-58.4034514,-34.8169358],[-58.4042543,-34.8173399],[-58.4050338,-34.8177494],[-58.4058376,-34.8181865],[-58.4066787,-34.8185335],[-58.4067704,-34.8185771],[-58.4068371,-34.8186136],[-58.4070309,-34.8187331],[-58.407466,-34.8189531],[-58.4074104,-34.8190357],[-58.4081797,-34.8194057],[-58.4089019,-34.8197564],[-58.409837,-34.8202342],[-58.4106295,-34.8206155],[-58.4106869,-34.8206407],[-58.4107622,-34.8206862],[-58.4108106,-34.8207121],[-58.4119152,-34.8212605],[-58.412642,-34.821614],[-58.4134178,-34.8219981],[-58.414169,-34.8223817],[-58.4149038,-34.8227451],[-58.4156508,-34.8231166],[-58.4164067,-34.8234687],[-58.4164678,-34.8233935],[-58.4164863,-34.8233606],[-58.4210718,-34.8256783],[-58.4225907,-34.8264657],[-58.4233324,-34.8268382],[-58.4245492,-34.8274377],[-58.4240705,-34.828103],[-58.4252459,-34.828704],[-58.4264585,-34.8293042],[-58.4276258,-34.8298764],[-58.4320135,-34.8321559],[-58.4321449,-34.8322273],[-58.4336154,-34.8329953],[-58.4343708,-34.8333666],[-58.4352126,-34.8337828],[-58.4360111,-34.8341895],[-58.4368435,-34.8345971],[-58.4376488,-34.8350314],[-58.4384718,-34.8354126],[-58.4393686,-34.8358499],[-58.4402065,-34.8362605]]]]}},{"type":"Feature","properties":{"name":"Claypole","osmRelation":2532419,"osmName":"Claypole","source":"OpenStreetMap contributors"},"geometry":{"type":"MultiPolygon","coordinates":[[[[-58.3661792,-34.8155735],[-58.366185,-34.8156634],[-58.3661851,-34.8157194],[-58.3661766,-34.8157879],[-58.366018,-34.8167199],[-58.3659637,-34.8170103],[-58.3657832,-34.8179886],[-58.3656321,-34.8187547],[-58.3655441,-34.8191732],[-58.3654938,-34.8194244],[-58.3653793,-34.8199899],[-58.365229,-34.8207909],[-58.3651462,-34.8209145],[-58.3649548,-34.8218347],[-58.3647163,-34.8230323],[-58.3641012,-34.8227129],[-58.3634123,-34.8223495],[-58.362734,-34.8219877],[-58.3619326,-34.8215657],[-58.3611978,-34.8211639],[-58.3604625,-34.8207767],[-58.359728,-34.8203848],[-58.3587808,-34.8198718],[-58.3579864,-34.8194312],[-58.357474,-34.8191586],[-58.357134,-34.8189713],[-58.3563147,-34.8185342],[-58.3554357,-34.8180809],[-58.3544583,-34.8175517],[-58.3543701,-34.817503],[-58.3531937,-34.8168635],[-58.3525205,-34.8164949],[-58.3523325,-34.816394],[-58.3518376,-34.8161311],[-58.3511332,-34.8157537],[-58.3496795,-34.8149917],[-58.3487542,-34.8145026],[-58.3485789,-34.8144076],[-58.3483421,-34.8142499],[-58.348065,-34.8140396],[-58.3478274,-34.8138356],[-58.3477463,-34.8137523],[-58.3476126,-34.8136143],[-58.3475016,-34.8134764],[-58.3472312,-34.8130934],[-58.3471328,-34.8129335],[-58.3470282,-34.8127215],[-58.3468718,-34.8123384],[-58.3467423,-34.8120059],[-58.3465963,-34.8115604],[-58.3465265,-34.8113892],[-58.3464444,-34.811217],[-58.3463488,-34.8110624],[-58.3461919,-34.8108286],[-58.3460197,-34.8105927],[-58.3459182,-34.8104536],[-58.3458158,-34.8103279],[-58.3457199,-34.8102309],[-58.3456024,-34.8101251],[-58.3454238,-34.8099784],[-58.345224,-34.8098254],[-58.3450213,-34.8096907],[-58.3448065,-34.8095623],[-58.3445997,-34.8094522],[-58.3439061,-34.8090878],[-58.3436323,-34.808943],[-58.34352,-34.8088383],[-58.3431982,-34.8086612],[-58.3431101,-34.808613],[-58.3424976,-34.8082779],[-58.3423602,-34.8082028],[-58.3421412,-34.808083],[-58.3416048,-34.8077896],[-58.340822,-34.8073499],[-58.3394595,-34.8066159],[-58.3385712,-34.8061299],[-58.3384459,-34.8060614],[-58.3381285,-34.8058877],[-58.33773,-34.8056697],[-58.3376228,-34.8058137],[-58.3374989,-34.80599],[-58.3369623,-34.8066908],[-58.3368811,-34.8068013],[-58.3362825,-34.8076159],[-58.3356527,-34.8072736],[-58.3354792,-34.807178],[-58.3350149,-34.8069215],[-58.33474,-34.8067698],[-58.3340104,-34.8063671],[-58.3336853,-34.8061891],[-58.3331298,-34.8059094],[-58.3330208,-34.8058455],[-58.3327913,-34.8057302],[-58.3319679,-34.8052765],[-58.3312144,-34.8048844],[-58.3310025,-34.8047682],[-58.3308604,-34.8046626],[-58.3305564,-34.8044978],[-58.3301195,-34.8042628],[-58.3300757,-34.8042325],[-58.3299945,-34.8041764],[-58.328674,-34.8034651],[-58.3274043,-34.802909],[-58.3263682,-34.802325],[-58.3262296,-34.8022698],[-58.3252132,-34.8017165],[-58.3241203,-34.8011095],[-58.3230245,-34.8004939],[-58.3225809,-34.8002652],[-58.3218769,-34.799878],[-58.3212711,-34.7995577],[-58.3209227,-34.7993679],[-58.3207539,-34.7992693],[-58.3199836,-34.7988599],[-58.3196492,-34.7986758],[-58.3204043,-34.7977374],[-58.321143,-34.7967884],[-58.3211772,-34.7967098],[-58.3212124,-34.7966232],[-58.3213464,-34.7964485],[-58.3213849,-34.7963958],[-58.3214926,-34.796248],[-58.3215719,-34.7961465],[-58.3218093,-34.7958296],[-58.3223991,-34.7950613],[-58.3224255,-34.7950261],[-58.3226949,-34.7946698],[-58.3229267,-34.7943571],[-58.322985,-34.7942784],[-58.3231558,-34.7940668],[-58.3232152,-34.7939891],[-58.3232426,-34.7939604],[-58.3232842,-34.7938977],[-58.3235897,-34.793487],[-58.3239079,-34.7930858],[-58.3243239,-34.7925369],[-58.3243765,-34.7924543],[-58.3244543,-34.7923474],[-58.3251205,-34.7914717],[-58.3253668,-34.7911533],[-58.3256036,-34.790841],[-58.3256335,-34.7908016],[-58.3257074,-34.7907041],[-58.3260403,-34.790265],[-58.3261883,-34.7900719],[-58.326508,-34.7896548],[-58.3266954,-34.7894103],[-58.3267499,-34.7893392],[-58.3268174,-34.789251],[-58.3273284,-34.7885843],[-58.3273665,-34.788528],[-58.3273939,-34.7884776],[-58.32788,-34.787451],[-58.3279329,-34.7873626],[-58.3282487,-34.786854],[-58.3284805,-34.786504],[-58.3285538,-34.7864055],[-58.3297661,-34.7870563],[-58.3304014,-34.7873792],[-58.3310776,-34.7877229],[-58.3319009,-34.788143],[-58.3327924,-34.7885899],[-58.3338606,-34.7891411],[-58.3348609,-34.789656],[-58.3358219,-34.7901541],[-58.3369799,-34.7907494],[-58.3379702,-34.7912576],[-58.3389827,-34.7917763],[-58.3399564,-34.7922868],[-58.3412179,-34.7929369],[-58.3419927,-34.7933376],[-58.3421854,-34.793437],[-58.3423274,-34.7935103],[-58.3424427,-34.7935698],[-58.342571,-34.793636],[-58.3430318,-34.7938783],[-58.3426132,-34.7945797],[-58.3422208,-34.7952647],[-58.3417651,-34.7960399],[-58.341715,-34.7961087],[-58.3414365,-34.7965085],[-58.3416346,-34.7966133],[-58.3424904,-34.7970762],[-58.3426944,-34.7971939],[-58.3433351,-34.7975465],[-58.3434735,-34.7976243],[-58.3437581,-34.7977756],[-58.3446357,-34.7982508],[-58.3446844,-34.7982771],[-58.3447872,-34.7983349],[-58.3457802,-34.7988895],[-58.3464734,-34.7992337],[-58.3465112,-34.7992453],[-58.3470316,-34.7995118],[-58.348019,-34.8000825],[-58.3482945,-34.8002283],[-58.3489762,-34.8006025],[-58.3502424,-34.8013103],[-58.3516632,-34.8020585],[-58.3528908,-34.8027279],[-58.353585,-34.8031068],[-58.3544831,-34.8035968],[-58.3550744,-34.8039168],[-58.3554378,-34.8041116],[-58.3566184,-34.804746],[-58.3581145,-34.8055683],[-58.3589682,-34.806032],[-58.3596288,-34.8063758],[-58.3611337,-34.8072076],[-58.3626326,-34.8080248],[-58.3641478,-34.8088453],[-58.3655369,-34.8096042],[-58.3655649,-34.8098797],[-58.3656533,-34.8106188],[-58.365756,-34.811597],[-58.3658068,-34.8120895],[-58.3658603,-34.8125649],[-58.365974,-34.8135577],[-58.366058,-34.814341],[-58.366078,-34.814543],[-58.3660898,-34.8146619],[-58.3661691,-34.8154549],[-58.3661792,-34.8155735]]]]}},{"type":"Feature","properties":{"name":"San Francisco de Asís","osmRelation":2532435,"osmName":"San Francisco de Asís","source":"OpenStreetMap contributors"},"geometry":{"type":"MultiPolygon","coordinates":[[[[-58.3647163,-34.8230323],[-58.3645219,-34.8240825],[-58.3643355,-34.8249929],[-58.3640293,-34.8265749],[-58.3638717,-34.8272689],[-58.3638036,-34.8276306],[-58.3636532,-34.8283857],[-58.3635108,-34.8290808],[-58.3632221,-34.8305609],[-58.3630746,-34.8312845],[-58.3629282,-34.8320017],[-58.3615305,-34.8312973],[-58.360565,-34.8308166],[-58.359599,-34.8303295],[-58.35863,-34.8298244],[-58.3576891,-34.8293641],[-58.3568437,-34.8289449],[-58.3566758,-34.8288609],[-58.3561342,-34.828595],[-58.3554254,-34.8282331],[-58.3550943,-34.8280731],[-58.3543896,-34.8277187],[-58.3535288,-34.8272948],[-58.3533566,-34.8272105],[-58.3531719,-34.8271207],[-58.3527926,-34.8269252],[-58.3526846,-34.8268644],[-58.3523486,-34.826709],[-58.351758,-34.8275247],[-58.3511735,-34.8283135],[-58.350619,-34.8290571],[-58.3495755,-34.8285193],[-58.3488511,-34.8281534],[-58.3481149,-34.827777],[-58.3473791,-34.8274102],[-58.3471591,-34.8273002],[-58.3453307,-34.8297398],[-58.3430913,-34.8286166],[-58.3422655,-34.8281843],[-58.3413758,-34.8277242],[-58.3408707,-34.8274614],[-58.3406275,-34.8273349],[-58.3401438,-34.8270935],[-58.3395741,-34.8268092],[-58.3389624,-34.8265041],[-58.3381368,-34.8260918],[-58.3376801,-34.8258609],[-58.3375509,-34.8257902],[-58.3370781,-34.8255314],[-58.3369235,-34.8254468],[-58.3366753,-34.8253167],[-58.3363287,-34.825135],[-58.3355431,-34.8247232],[-58.3330625,-34.8233571],[-58.3304385,-34.8219467],[-58.3292498,-34.8213078],[-58.3277097,-34.8204698],[-58.3280211,-34.8201141],[-58.3269695,-34.8194966],[-58.3266154,-34.8193072],[-58.3263002,-34.8191488],[-58.3252789,-34.8186361],[-58.3251122,-34.8188557],[-58.3248485,-34.8187015],[-58.3247771,-34.8186892],[-58.3245901,-34.8185809],[-58.3245365,-34.8185525],[-58.3241452,-34.8183361],[-58.3234604,-34.817942],[-58.3236334,-34.8176779],[-58.3242608,-34.8168694],[-58.3243139,-34.8168008],[-58.3248705,-34.8160879],[-58.3249874,-34.8159441],[-58.3254694,-34.8153329],[-58.3255882,-34.8151746],[-58.3261127,-34.8145234],[-58.3261699,-34.8144456],[-58.3267344,-34.8137051],[-58.3274364,-34.8127687],[-58.3280649,-34.811952],[-58.3281802,-34.8118029],[-58.3287024,-34.8111037],[-58.3290707,-34.8106335],[-58.329417,-34.810153],[-58.3296623,-34.8098267],[-58.3298944,-34.8095055],[-58.3304188,-34.8088207],[-58.3308967,-34.8081907],[-58.3309527,-34.8081145],[-58.3314319,-34.8074737],[-58.3315405,-34.8073357],[-58.3319272,-34.8068254],[-58.332166,-34.8065186],[-58.3327913,-34.8057302],[-58.3330208,-34.8058455],[-58.3331298,-34.8059094],[-58.3336853,-34.8061891],[-58.3340104,-34.8063671],[-58.33474,-34.8067698],[-58.3350149,-34.8069215],[-58.3354792,-34.807178],[-58.3356527,-34.8072736],[-58.3362825,-34.8076159],[-58.3368811,-34.8068013],[-58.3369623,-34.8066908],[-58.3374989,-34.80599],[-58.3376228,-34.8058137],[-58.33773,-34.8056697],[-58.3381285,-34.8058877],[-58.3384459,-34.8060614],[-58.3385712,-34.8061299],[-58.3394595,-34.8066159],[-58.340822,-34.8073499],[-58.3416048,-34.8077896],[-58.3421412,-34.808083],[-58.3423602,-34.8082028],[-58.3424976,-34.8082779],[-58.3431101,-34.808613],[-58.3431982,-34.8086612],[-58.34352,-34.8088383],[-58.3436323,-34.808943],[-58.3439061,-34.8090878],[-58.3445997,-34.8094522],[-58.3448065,-34.8095623],[-58.3450213,-34.8096907],[-58.345224,-34.8098254],[-58.3454238,-34.8099784],[-58.3456024,-34.8101251],[-58.3457199,-34.8102309],[-58.3458158,-34.8103279],[-58.3459182,-34.8104536],[-58.3460197,-34.8105927],[-58.3461919,-34.8108286],[-58.3463488,-34.8110624],[-58.3464444,-34.811217],[-58.3465265,-34.8113892],[-58.3465963,-34.8115604],[-58.3467423,-34.8120059],[-58.3468718,-34.8123384],[-58.3470282,-34.8127215],[-58.3471328,-34.8129335],[-58.3472312,-34.8130934],[-58.3475016,-34.8134764],[-58.3476126,-34.8136143],[-58.3477463,-34.8137523],[-58.3478274,-34.8138356],[-58.348065,-34.8140396],[-58.3483421,-34.8142499],[-58.3485789,-34.8144076],[-58.3487542,-34.8145026],[-58.3496795,-34.8149917],[-58.3511332,-34.8157537],[-58.3518376,-34.8161311],[-58.3523325,-34.816394],[-58.3525205,-34.8164949],[-58.3531937,-34.8168635],[-58.3543701,-34.817503],[-58.3544583,-34.8175517],[-58.3554357,-34.8180809],[-58.3563147,-34.8185342],[-58.357134,-34.8189713],[-58.357474,-34.8191586],[-58.3579864,-34.8194312],[-58.3587808,-34.8198718],[-58.359728,-34.8203848],[-58.3604625,-34.8207767],[-58.3611978,-34.8211639],[-58.3619326,-34.8215657],[-58.362734,-34.8219877],[-58.3634123,-34.8223495],[-58.3641012,-34.8227129],[-58.3647163,-34.8230323]]]]}},{"type":"Feature","properties":{"name":"Glew","osmRelation":2532046,"osmName":"Glew","source":"OpenStreetMap contributors"},"geometry":{"type":"MultiPolygon","coordinates":[[[[-58.4159587,-34.8830259],[-58.4154943,-34.8836607],[-58.4150734,-34.8842362],[-58.4148118,-34.8845938],[-58.4146537,-34.884823],[-58.414145,-34.8855053],[-58.4136848,-34.8861345],[-58.4133369,-34.88661],[-58.4132471,-34.8867327],[-58.4129236,-34.8871728],[-58.412867,-34.8872523],[-58.4124353,-34.8878425],[-58.4120588,-34.8883572],[-58.4117307,-34.8888056],[-58.4116744,-34.8888826],[-58.4116059,-34.8889762],[-58.4103931,-34.8906341],[-58.4092839,-34.8921924],[-58.4085312,-34.8932186],[-58.4082153,-34.8936816],[-58.4081844,-34.8937211],[-58.4076457,-34.8944386],[-58.4071343,-34.8951545],[-58.4067754,-34.8956926],[-58.4066974,-34.8957487],[-58.4062264,-34.8964414],[-58.4060783,-34.8966574],[-58.405491,-34.8974296],[-58.4054161,-34.897508],[-58.4047133,-34.898484],[-58.4039848,-34.899467],[-58.4033096,-34.9004526],[-58.4024821,-34.9016225],[-58.4017429,-34.9026779],[-58.4015827,-34.9029185],[-58.4011892,-34.9034319],[-58.4007141,-34.9040952],[-58.39879,-34.9066376],[-58.398039,-34.9076881],[-58.3972943,-34.9087053],[-58.3964336,-34.9098951],[-58.3948881,-34.9091354],[-58.39415,-34.9087559],[-58.3937904,-34.9085787],[-58.3933583,-34.9083658],[-58.3921625,-34.9077766],[-58.3916138,-34.9075006],[-58.3910926,-34.9072392],[-58.3908478,-34.907128],[-58.3907774,-34.9071039],[-58.3907363,-34.9070893],[-58.3904831,-34.9070038],[-58.3899326,-34.9067813],[-58.3897824,-34.9067134],[-58.3896711,-34.9066583],[-58.3883307,-34.9059939],[-58.388084,-34.9058673],[-58.3879935,-34.9058217],[-58.3872726,-34.9054586],[-58.3868661,-34.9052563],[-58.3867939,-34.9052202],[-58.3855998,-34.9046238],[-58.3854332,-34.9045433],[-58.3853567,-34.9045056],[-58.3841976,-34.9039341],[-58.3839736,-34.9038219],[-58.3836496,-34.9036495],[-58.3831391,-34.9034001],[-58.382556,-34.9030959],[-58.382541,-34.9030893],[-58.3824937,-34.9030683],[-58.3824234,-34.9030473],[-58.3824399,-34.9028611],[-58.3823509,-34.9028332],[-58.3822366,-34.9027915],[-58.3821934,-34.9027795],[-58.3821116,-34.9027595],[-58.3819385,-34.9027226],[-58.3818098,-34.9026996],[-58.3816964,-34.9026681],[-58.3816762,-34.9026625],[-58.3816077,-34.9026325],[-58.3815579,-34.9026106],[-58.3806506,-34.9021504],[-58.3805341,-34.9020913],[-58.3803543,-34.9020053],[-58.3794044,-34.9015295],[-58.3793023,-34.9014783],[-58.3788923,-34.9012818],[-58.3780951,-34.9008679],[-58.3775047,-34.900582],[-58.3774292,-34.9005454],[-58.3770669,-34.9003603],[-58.3760378,-34.8998493],[-58.3760047,-34.8998328],[-58.3759763,-34.8998187],[-58.3758872,-34.8997744],[-58.3750686,-34.899367],[-58.374949,-34.8993075],[-58.3744715,-34.8990738],[-58.3737767,-34.8987085],[-58.3737099,-34.8986751],[-58.3730297,-34.8983353],[-58.3729815,-34.8983112],[-58.3726168,-34.8981322],[-58.3725095,-34.898079],[-58.3717981,-34.8977264],[-58.3715723,-34.8976161],[-58.3714855,-34.8975737],[-58.3714109,-34.8975357],[-58.3713358,-34.8974982],[-58.3702783,-34.89697],[-58.3701734,-34.8969177],[-58.3700418,-34.8968506],[-58.3689662,-34.8963149],[-58.3688825,-34.8962735],[-58.368572,-34.8961196],[-58.3678827,-34.8957684],[-58.3677701,-34.8957111],[-58.367107,-34.8953783],[-58.3666605,-34.8951552],[-58.3665428,-34.8950964],[-58.3656614,-34.8946623],[-58.3649682,-34.8942904],[-58.3649205,-34.8942411],[-58.3649049,-34.8941972],[-58.3649022,-34.8941626],[-58.3648849,-34.8941121],[-58.3648475,-34.8940805],[-58.3647516,-34.8940325],[-58.3640741,-34.8936982],[-58.3633994,-34.8933611],[-58.3633156,-34.8933192],[-58.3629157,-34.8931271],[-58.3625455,-34.892944],[-58.3625005,-34.8929223],[-58.3618552,-34.8926122],[-58.3617712,-34.8925718],[-58.3615438,-34.8924624],[-58.361075,-34.8922304],[-58.3610084,-34.8921974],[-58.3609413,-34.892163],[-58.360726,-34.8920528],[-58.3602987,-34.891842],[-58.3602354,-34.8918107],[-58.3598324,-34.8916215],[-58.3594616,-34.8914354],[-58.3593859,-34.8913983],[-58.3587154,-34.8910696],[-58.3583689,-34.8909044],[-58.3580038,-34.8907214],[-58.3579155,-34.8906771],[-58.3571975,-34.8903272],[-58.3571299,-34.8902943],[-58.3563699,-34.8899175],[-58.3563057,-34.8898892],[-58.3556012,-34.889547],[-58.3525746,-34.8880738],[-58.3505026,-34.8870471],[-58.3499065,-34.8867535],[-58.3488428,-34.8862278],[-58.3484221,-34.8860224],[-58.3482793,-34.8859527],[-58.346438,-34.8850538],[-58.3463232,-34.885023],[-58.3459489,-34.885538],[-58.3456324,-34.8859734],[-58.3456091,-34.8860056],[-58.3452674,-34.8864757],[-58.3449317,-34.8869376],[-58.3446032,-34.8873895],[-58.3442633,-34.8878571],[-58.3442314,-34.8879009],[-58.3439313,-34.8883166],[-58.3435939,-34.8887789],[-58.3432462,-34.8892565],[-58.3431447,-34.889396],[-58.3429163,-34.8897056],[-58.3425839,-34.8901676],[-58.3422271,-34.8906585],[-58.3415556,-34.8902991],[-58.3410225,-34.890013],[-58.3404453,-34.8897066],[-58.3400526,-34.8894967],[-58.3394699,-34.8891875],[-58.3389041,-34.8888873],[-58.3383451,-34.8885907],[-58.3382351,-34.8885323],[-58.3377985,-34.888298],[-58.3374815,-34.8881279],[-58.3372297,-34.8879928],[-58.3362731,-34.8874738],[-58.3365675,-34.8870657],[-58.3370148,-34.8864688],[-58.3376565,-34.8856055],[-58.3377616,-34.8854617],[-58.3379714,-34.8851749],[-58.3382927,-34.884743],[-58.3389924,-34.8837667],[-58.3395488,-34.8829853],[-58.3408949,-34.8811395],[-58.3416284,-34.8801762],[-58.3423306,-34.8792524],[-58.3430444,-34.8782857],[-58.3437003,-34.8773836],[-58.344345,-34.8764836],[-58.3442287,-34.8764214],[-58.3446194,-34.8758639],[-58.3446662,-34.8757928],[-58.3448691,-34.8755589],[-58.3454561,-34.8747612],[-58.3460448,-34.8739434],[-58.3468765,-34.8728029],[-58.3478463,-34.8732979],[-58.3488094,-34.87382],[-58.3489296,-34.8738839],[-58.349744,-34.8743168],[-58.3507298,-34.8748413],[-58.3517789,-34.8754046],[-58.3528895,-34.8759765],[-58.3530635,-34.8757338],[-58.3534031,-34.8752669],[-58.3535859,-34.8750174],[-58.3539489,-34.8745182],[-58.3539932,-34.8744585],[-58.3544501,-34.8738342],[-58.3546247,-34.8735902],[-58.3548111,-34.8733304],[-58.3549197,-34.8731782],[-58.3551564,-34.8728563],[-58.3557728,-34.8720061],[-58.356125,-34.8715272],[-58.3565373,-34.8709545],[-58.3568437,-34.8705289],[-58.3571989,-34.870044],[-58.3577461,-34.869297],[-58.3578608,-34.8691419],[-58.3584602,-34.8683289],[-58.3592858,-34.8687723],[-58.3596365,-34.8689606],[-58.3610042,-34.8696937],[-58.3616815,-34.8700465],[-58.3617218,-34.8700675],[-58.3623876,-34.870409],[-58.3637648,-34.8711417],[-58.3651398,-34.8718513],[-58.3665129,-34.8725822],[-58.3678716,-34.8733178],[-58.3674875,-34.8738187],[-58.3670676,-34.8744057],[-58.3685852,-34.8752004],[-58.3699966,-34.8759076],[-58.3712249,-34.8765599],[-58.3714236,-34.8766654],[-58.372416,-34.8772014],[-58.3728802,-34.8774521],[-58.3729386,-34.8774837],[-58.3729874,-34.8774177],[-58.3734688,-34.8768005],[-58.3734921,-34.8767678],[-58.3738079,-34.8763274],[-58.3739959,-34.8760601],[-58.3740203,-34.8759931],[-58.3740398,-34.8759294],[-58.3741145,-34.8758072],[-58.3741764,-34.8757239],[-58.3745967,-34.8751591],[-58.3750341,-34.8745627],[-58.3751327,-34.8744312],[-58.3754595,-34.8739782],[-58.3757135,-34.8736446],[-58.3758807,-34.8734123],[-58.3762854,-34.8728772],[-58.3763133,-34.8728454],[-58.376344,-34.8728032],[-58.3763714,-34.8727749],[-58.3772256,-34.8732261],[-58.3782208,-34.8737627],[-58.3792563,-34.8743179],[-58.3803402,-34.8748457],[-58.381474,-34.875421],[-58.3826075,-34.8759807],[-58.3837368,-34.8765373],[-58.3847401,-34.8770268],[-58.3848185,-34.8770442],[-58.3850071,-34.8757481],[-58.3851385,-34.8744535],[-58.385314,-34.8731875],[-58.3863508,-34.8730915],[-58.3877498,-34.8732269],[-58.387875,-34.8732299],[-58.388011,-34.8732269],[-58.3894874,-34.8731956],[-58.389612,-34.8732625],[-58.3907166,-34.8738119],[-58.3914527,-34.8742097],[-58.3923882,-34.8746283],[-58.3924817,-34.8746465],[-58.3925885,-34.8746428],[-58.3931245,-34.8745478],[-58.3931496,-34.87463],[-58.3932622,-34.8748325],[-58.3933805,-34.8750197],[-58.3934564,-34.8750903],[-58.3935677,-34.8751608],[-58.3952264,-34.8759576],[-58.3963569,-34.8765516],[-58.3962152,-34.8767437],[-58.3967516,-34.8769601],[-58.3970041,-34.8770895],[-58.3977064,-34.8774919],[-58.3987474,-34.878032],[-58.3990773,-34.877578],[-58.3994269,-34.8770967],[-58.3995876,-34.8768714],[-58.400086,-34.8761778],[-58.4006358,-34.8754084],[-58.4015813,-34.8758938],[-58.4019772,-34.8761005],[-58.4024921,-34.8763481],[-58.4033846,-34.8767947],[-58.4042918,-34.8772255],[-58.4047375,-34.8774477],[-58.4051784,-34.8776617],[-58.4061037,-34.8781153],[-58.4069755,-34.8785775],[-58.4074494,-34.8788036],[-58.4078535,-34.8789994],[-58.4087705,-34.8794687],[-58.4102307,-34.8801802],[-58.4105659,-34.8803467],[-58.4116866,-34.8809035],[-58.4124316,-34.8812736],[-58.4131106,-34.881611],[-58.4145581,-34.8823301],[-58.415382,-34.8827394],[-58.4159587,-34.8830259]]]]}},{"type":"Feature","properties":{"name":"José Mármol","osmRelation":2532357,"osmName":"José Mármol","source":"OpenStreetMap contributors"},"geometry":{"type":"MultiPolygon","coordinates":[[[[-58.3876951,-34.7865622],[-58.3870076,-34.7875101],[-58.3863061,-34.7884443],[-58.3856049,-34.7893709],[-58.385186,-34.7899314],[-58.3849644,-34.7902286],[-58.3848988,-34.7903173],[-58.3843256,-34.7910692],[-58.3842349,-34.79122],[-58.3842121,-34.7912698],[-58.3841737,-34.7913223],[-58.3839452,-34.7916296],[-58.3832036,-34.7926194],[-58.3830069,-34.7928512],[-58.3821141,-34.7938622],[-58.3810102,-34.795149],[-58.3804887,-34.7957568],[-58.379948,-34.7964034],[-58.3795327,-34.7968999],[-58.3788641,-34.7976947],[-58.3779732,-34.7987866],[-58.3778763,-34.7989468],[-58.3771332,-34.8000543],[-58.3764736,-34.8010686],[-58.3758233,-34.8021215],[-58.3749191,-34.801618],[-58.3741653,-34.8012017],[-58.3733604,-34.8007573],[-58.372982,-34.8005483],[-58.3725789,-34.800332],[-58.371771,-34.7998832],[-58.3709959,-34.7994515],[-58.3706038,-34.7992327],[-58.3702088,-34.7990139],[-58.3693988,-34.7985703],[-58.3687242,-34.7981967],[-58.3682341,-34.7979251],[-58.3691269,-34.7969006],[-58.3699803,-34.7959344],[-58.371094,-34.7946734],[-58.3706464,-34.7943927],[-58.3705655,-34.7943468],[-58.3701362,-34.7940844],[-58.3688566,-34.7933126],[-58.368494,-34.793095],[-58.3675704,-34.7925425],[-58.3663091,-34.7917854],[-58.3649876,-34.7910039],[-58.3638947,-34.7903315],[-58.3624509,-34.7894974],[-58.3620935,-34.789295],[-58.361615,-34.7890055],[-58.3607417,-34.7884794],[-58.3604601,-34.7883037],[-58.359351,-34.7876549],[-58.3592654,-34.7875992],[-58.3580223,-34.7868679],[-58.3577171,-34.7866871],[-58.3566757,-34.7860684],[-58.355758,-34.7855074],[-58.3557299,-34.7854909],[-58.355143,-34.785144],[-58.35483,-34.784959],[-58.3539154,-34.7844095],[-58.3534106,-34.7841143],[-58.353265,-34.7840305],[-58.3529897,-34.7838591],[-58.3525641,-34.7836104],[-58.3523085,-34.7834639],[-58.3520726,-34.7833169],[-58.3513027,-34.7828488],[-58.3511576,-34.7827566],[-58.3502321,-34.7822002],[-58.3495691,-34.781789],[-58.349342,-34.7816453],[-58.3499451,-34.7809508],[-58.3505634,-34.7802467],[-58.351526,-34.779149],[-58.3523026,-34.7782484],[-58.3526366,-34.7778683],[-58.3530788,-34.7773651],[-58.3539812,-34.7763268],[-58.3548975,-34.7753065],[-58.3555446,-34.7745436],[-58.3562001,-34.7737979],[-58.3564997,-34.7739442],[-58.3570638,-34.773289],[-58.3572713,-34.7730392],[-58.3575964,-34.7726617],[-58.357996,-34.7721873],[-58.3581337,-34.7720215],[-58.3586916,-34.7713504],[-58.3600598,-34.7720512],[-58.3611891,-34.7726238],[-58.3622532,-34.7731689],[-58.3622973,-34.7731922],[-58.3623392,-34.773214],[-58.3625115,-34.7733055],[-58.3632221,-34.7736682],[-58.3644036,-34.774271],[-58.3655423,-34.7748483],[-58.3666587,-34.7754144],[-58.3676769,-34.7759286],[-58.3677938,-34.7759875],[-58.3688974,-34.7765493],[-58.3690186,-34.7766145],[-58.3700266,-34.7771355],[-58.3703671,-34.777305],[-58.3711472,-34.7776971],[-58.3717165,-34.7779868],[-58.3722861,-34.7782715],[-58.3730788,-34.7786802],[-58.373411,-34.778835],[-58.3744628,-34.7793623],[-58.3745585,-34.7794136],[-58.375689,-34.7799896],[-58.3757912,-34.7800473],[-58.3763598,-34.7803657],[-58.3766175,-34.7804978],[-58.3771239,-34.7807833],[-58.3774416,-34.7809508],[-58.3784603,-34.78151],[-58.3797047,-34.7821784],[-58.3799491,-34.7823034],[-58.3810344,-34.7829017],[-58.3813986,-34.7831067],[-58.3823272,-34.7836035],[-58.3827291,-34.7838272],[-58.3831937,-34.784084],[-58.3839005,-34.7844834],[-58.3848312,-34.7849755],[-58.3857211,-34.7854654],[-58.3867061,-34.786023],[-58.3867791,-34.7860624],[-58.3876951,-34.7865622]]]]}},{"type":"Feature","properties":{"name":"Longchamps","osmRelation":2532073,"osmName":"Longchamps","source":"OpenStreetMap contributors"},"geometry":{"type":"MultiPolygon","coordinates":[[[[-58.4254578,-34.8564556],[-58.4189795,-34.8654883],[-58.4171557,-34.8679984],[-58.4160431,-34.8695105],[-58.4133645,-34.8731972],[-58.4130215,-34.8735696],[-58.4125982,-34.8741526],[-58.4121844,-34.8747225],[-58.4117594,-34.8753079],[-58.4113327,-34.8758956],[-58.4109125,-34.8764744],[-58.4104954,-34.8770489],[-58.4100762,-34.8776262],[-58.4096544,-34.8782072],[-58.4092289,-34.8787932],[-58.4087968,-34.8793884],[-58.4087705,-34.8794687],[-58.4078535,-34.8789994],[-58.4074494,-34.8788036],[-58.4069755,-34.8785775],[-58.4061037,-34.8781153],[-58.4051784,-34.8776617],[-58.4047375,-34.8774477],[-58.4042918,-34.8772255],[-58.4033846,-34.8767947],[-58.4024921,-34.8763481],[-58.4019772,-34.8761005],[-58.4015813,-34.8758938],[-58.4006358,-34.8754084],[-58.400086,-34.8761778],[-58.3995876,-34.8768714],[-58.3994269,-34.8770967],[-58.3990773,-34.877578],[-58.3987474,-34.878032],[-58.3977064,-34.8774919],[-58.3970041,-34.8770895],[-58.3967516,-34.8769601],[-58.3962152,-34.8767437],[-58.3963569,-34.8765516],[-58.3952264,-34.8759576],[-58.3935677,-34.8751608],[-58.3934564,-34.8750903],[-58.3933805,-34.8750197],[-58.3932622,-34.8748325],[-58.3931496,-34.87463],[-58.3931245,-34.8745478],[-58.3925885,-34.8746428],[-58.3924817,-34.8746465],[-58.3923882,-34.8746283],[-58.3914527,-34.8742097],[-58.3907166,-34.8738119],[-58.389612,-34.8732625],[-58.3894874,-34.8731956],[-58.388011,-34.8732269],[-58.387875,-34.8732299],[-58.3877498,-34.8732269],[-58.3863508,-34.8730915],[-58.385314,-34.8731875],[-58.3851385,-34.8744535],[-58.3850071,-34.8757481],[-58.3848185,-34.8770442],[-58.3847401,-34.8770268],[-58.3837368,-34.8765373],[-58.3826075,-34.8759807],[-58.381474,-34.875421],[-58.3803402,-34.8748457],[-58.3792563,-34.8743179],[-58.3782208,-34.8737627],[-58.3772256,-34.8732261],[-58.3763714,-34.8727749],[-58.376344,-34.8728032],[-58.3763133,-34.8728454],[-58.3762854,-34.8728772],[-58.3758807,-34.8734123],[-58.3757135,-34.8736446],[-58.3754595,-34.8739782],[-58.3751327,-34.8744312],[-58.3750341,-34.8745627],[-58.3745967,-34.8751591],[-58.3741764,-34.8757239],[-58.3741145,-34.8758072],[-58.3740398,-34.8759294],[-58.3740203,-34.8759931],[-58.3739959,-34.8760601],[-58.3738079,-34.8763274],[-58.3734921,-34.8767678],[-58.3734688,-34.8768005],[-58.3729874,-34.8774177],[-58.3729386,-34.8774837],[-58.3728802,-34.8774521],[-58.372416,-34.8772014],[-58.3714236,-34.8766654],[-58.3712249,-34.8765599],[-58.3699966,-34.8759076],[-58.3685852,-34.8752004],[-58.3670676,-34.8744057],[-58.3674875,-34.8738187],[-58.3678716,-34.8733178],[-58.3665129,-34.8725822],[-58.3651398,-34.8718513],[-58.3637648,-34.8711417],[-58.3623876,-34.870409],[-58.3617218,-34.8700675],[-58.3616815,-34.8700465],[-58.3610042,-34.8696937],[-58.3596365,-34.8689606],[-58.3592858,-34.8687723],[-58.3584602,-34.8683289],[-58.3588698,-34.867746],[-58.3593149,-34.8671168],[-58.3597441,-34.8665318],[-58.3600362,-34.8661223],[-58.3601466,-34.8659667],[-58.3604958,-34.8654839],[-58.3605725,-34.8653728],[-58.3609555,-34.8648634],[-58.3609887,-34.8648198],[-58.3610222,-34.8647803],[-58.361833,-34.8651925],[-58.3618837,-34.8651261],[-58.3628027,-34.8638991],[-58.3637632,-34.8626732],[-58.3642453,-34.8620505],[-58.3645249,-34.8616782],[-58.3650745,-34.8609843],[-58.365602,-34.8603219],[-58.3660951,-34.85969],[-58.3666454,-34.8589888],[-58.3669992,-34.8585338],[-58.3671045,-34.8584042],[-58.367935,-34.857341],[-58.3683545,-34.8568096],[-58.3688387,-34.8561961],[-58.3697463,-34.8550319],[-58.3702899,-34.854349],[-58.3704287,-34.8542237],[-58.3705277,-34.8541033],[-58.3708455,-34.8537018],[-58.370889,-34.8536005],[-58.3713868,-34.8529709],[-58.3718772,-34.8523561],[-58.3724721,-34.8515794],[-58.3726199,-34.8513969],[-58.3730778,-34.8508034],[-58.373598,-34.8501447],[-58.3739863,-34.8496551],[-58.374146,-34.8494504],[-58.3746444,-34.8488316],[-58.3751616,-34.8481779],[-58.3754067,-34.8478567],[-58.3759433,-34.8471592],[-58.3761305,-34.8470106],[-58.3766559,-34.8463366],[-58.3771721,-34.8456621],[-58.3773337,-34.8454429],[-58.3782573,-34.8441051],[-58.3785758,-34.8436433],[-58.3786443,-34.8435399],[-58.3786762,-34.8434925],[-58.3790355,-34.8429631],[-58.3792257,-34.8426789],[-58.3796944,-34.8419716],[-58.3801206,-34.8413252],[-58.3803513,-34.8409776],[-58.3807397,-34.8404035],[-58.3809576,-34.8400841],[-58.3872305,-34.8426156],[-58.3889846,-34.8434034],[-58.3889344,-34.8437749],[-58.3888877,-34.8441415],[-58.3890603,-34.8441402],[-58.3891085,-34.8441408],[-58.3893266,-34.8441494],[-58.3894889,-34.8441676],[-58.3901273,-34.8443126],[-58.3902361,-34.8443439],[-58.390422,-34.8443899],[-58.390551,-34.8444317],[-58.390693,-34.8444887],[-58.3911338,-34.844694],[-58.3912487,-34.844752],[-58.3918487,-34.845069],[-58.3919055,-34.8451053],[-58.3925425,-34.8454191],[-58.393218,-34.8457617],[-58.3939335,-34.8461178],[-58.3946241,-34.846456],[-58.3953442,-34.8468067],[-58.3961622,-34.847186],[-58.3983978,-34.848232],[-58.3985004,-34.8480912],[-58.3988377,-34.8476177],[-58.4011308,-34.8444795],[-58.4012555,-34.8445375],[-58.4013621,-34.8445861],[-58.4021464,-34.8449609],[-58.4023483,-34.8450429],[-58.4024887,-34.8450999],[-58.4138071,-34.850351],[-58.4140575,-34.8504572],[-58.4175956,-34.8522296],[-58.4174452,-34.8524482],[-58.4214929,-34.8544813],[-58.4226487,-34.8550519],[-58.424261,-34.8558811],[-58.4254578,-34.8564556]]]]}},{"type":"Feature","properties":{"name":"Malvinas Argentinas","osmRelation":2532337,"osmName":"Malvinas Argentinas","source":"OpenStreetMap contributors"},"geometry":{"type":"MultiPolygon","coordinates":[[[[-58.4477603,-34.82595],[-58.4471888,-34.8267252],[-58.4467114,-34.827367],[-58.4465163,-34.8276257],[-58.4461977,-34.8280688],[-58.4457178,-34.8287207],[-58.4448873,-34.829852],[-58.444382,-34.8305525],[-58.4438849,-34.8312072],[-58.443423,-34.8318677],[-58.4429441,-34.8325221],[-58.4424358,-34.8332186],[-58.4422857,-34.833427],[-58.4420164,-34.8337939],[-58.4415913,-34.8343776],[-58.4410168,-34.8351527],[-58.4404697,-34.8359108],[-58.4402065,-34.8362605],[-58.4393686,-34.8358499],[-58.4384718,-34.8354126],[-58.4376488,-34.8350314],[-58.4368435,-34.8345971],[-58.4360111,-34.8341895],[-58.4352126,-34.8337828],[-58.4343708,-34.8333666],[-58.4336154,-34.8329953],[-58.4321449,-34.8322273],[-58.4320135,-34.8321559],[-58.4276258,-34.8298764],[-58.4264585,-34.8293042],[-58.4252459,-34.828704],[-58.4240705,-34.828103],[-58.4245492,-34.8274377],[-58.4233324,-34.8268382],[-58.4225907,-34.8264657],[-58.4210718,-34.8256783],[-58.4164863,-34.8233606],[-58.4164678,-34.8233935],[-58.4164067,-34.8234687],[-58.4156508,-34.8231166],[-58.4149038,-34.8227451],[-58.414169,-34.8223817],[-58.4134178,-34.8219981],[-58.412642,-34.821614],[-58.4119152,-34.8212605],[-58.4108106,-34.8207121],[-58.4107622,-34.8206862],[-58.4106869,-34.8206407],[-58.4106295,-34.8206155],[-58.409837,-34.8202342],[-58.4089019,-34.8197564],[-58.4081797,-34.8194057],[-58.4074104,-34.8190357],[-58.407466,-34.8189531],[-58.4070309,-34.8187331],[-58.4068371,-34.8186136],[-58.4067704,-34.8185771],[-58.4066787,-34.8185335],[-58.4058376,-34.8181865],[-58.4050338,-34.8177494],[-58.4042543,-34.8173399],[-58.4034514,-34.8169358],[-58.4027039,-34.8165738],[-58.4019658,-34.8162009],[-58.4012265,-34.8158364],[-58.4000919,-34.8152735],[-58.3990081,-34.8147365],[-58.3978693,-34.814172],[-58.3979617,-34.8140536],[-58.3983881,-34.8135512],[-58.3988872,-34.8129395],[-58.3995253,-34.8121349],[-58.3999158,-34.8116558],[-58.4001388,-34.8113796],[-58.4003576,-34.8110779],[-58.4004611,-34.8109498],[-58.400489,-34.8108839],[-58.4005224,-34.8108448],[-58.4008887,-34.8103532],[-58.4009573,-34.8102636],[-58.4014811,-34.8095502],[-58.402151,-34.8086702],[-58.4025705,-34.8080869],[-58.4028932,-34.8076593],[-58.402964,-34.8075635],[-58.4029918,-34.807523],[-58.4030494,-34.8074433],[-58.4031903,-34.8072486],[-58.4032615,-34.8071426],[-58.4039205,-34.8062701],[-58.4045389,-34.8054497],[-58.4049158,-34.8049825],[-58.404961,-34.8049213],[-58.404987,-34.8048867],[-58.4051706,-34.8046407],[-58.4074673,-34.8057714],[-58.4084003,-34.8062309],[-58.4085656,-34.8063151],[-58.4094828,-34.8067726],[-58.4095919,-34.8068271],[-58.4104221,-34.8072363],[-58.4104774,-34.8072635],[-58.4113503,-34.8076938],[-58.4122764,-34.8081637],[-58.413217,-34.808627],[-58.413858,-34.8089487],[-58.4142378,-34.8091387],[-58.4142554,-34.8091477],[-58.4145162,-34.8092816],[-58.4150031,-34.8095201],[-58.4153552,-34.8096908],[-58.4161135,-34.8100622],[-58.4161579,-34.8100856],[-58.4169662,-34.8104884],[-58.4177391,-34.8108748],[-58.4178506,-34.8109304],[-58.4188726,-34.8114413],[-58.4190603,-34.8115373],[-58.4199598,-34.8119848],[-58.4209178,-34.8124636],[-58.4219381,-34.8129736],[-58.4227698,-34.8133899],[-58.4235217,-34.8137617],[-58.4246691,-34.8143324],[-58.425014,-34.8145053],[-58.4261084,-34.8150516],[-58.4275505,-34.8157787],[-58.4284023,-34.8162046],[-58.4291936,-34.8165926],[-58.4295624,-34.8167875],[-58.429602,-34.8168139],[-58.4296227,-34.8168324],[-58.4296461,-34.8168598],[-58.4296651,-34.8168911],[-58.4297374,-34.8168896],[-58.4297939,-34.8168978],[-58.429834,-34.8169091],[-58.4302719,-34.8171199],[-58.4303363,-34.8171512],[-58.4304366,-34.8172031],[-58.430503,-34.8172355],[-58.430556,-34.8172613],[-58.4307234,-34.8173435],[-58.4315164,-34.8177274],[-58.4316255,-34.8177794],[-58.4318431,-34.8178854],[-58.4325154,-34.8182203],[-58.4330863,-34.8185047],[-58.4334094,-34.8186656],[-58.4343924,-34.8191552],[-58.434768,-34.8193423],[-58.4355861,-34.8197498],[-58.436048,-34.8199799],[-58.436979,-34.8204469],[-58.4380056,-34.8209587],[-58.4381895,-34.8210531],[-58.4387965,-34.8213432],[-58.4394666,-34.8216768],[-58.4395919,-34.8217392],[-58.4404594,-34.8221691],[-58.4407476,-34.8223067],[-58.4414542,-34.82266],[-58.4416434,-34.8227542],[-58.4423586,-34.8231082],[-58.4424262,-34.8231412],[-58.4432778,-34.8235575],[-58.443409,-34.823621],[-58.4444562,-34.8241469],[-58.4452725,-34.8245457],[-58.4458099,-34.8248083],[-58.4461317,-34.8249655],[-58.4469952,-34.8253874],[-58.4471012,-34.8254404],[-58.4473497,-34.8255814],[-58.4474275,-34.8256291],[-58.4475115,-34.8256971],[-58.4477603,-34.82595]]]]}},{"type":"Feature","properties":{"name":"Ministro Rivadavia","osmRelation":2531873,"osmName":"Ministro Rivadavia","source":"OpenStreetMap contributors"},"geometry":{"type":"MultiPolygon","coordinates":[[[[-58.3803513,-34.8409776],[-58.3801206,-34.8413252],[-58.3796944,-34.8419716],[-58.3792257,-34.8426789],[-58.3790355,-34.8429631],[-58.3786762,-34.8434925],[-58.3786443,-34.8435399],[-58.3785758,-34.8436433],[-58.3782573,-34.8441051],[-58.3773337,-34.8454429],[-58.3771721,-34.8456621],[-58.3766559,-34.8463366],[-58.3761305,-34.8470106],[-58.3759433,-34.8471592],[-58.3754067,-34.8478567],[-58.3751616,-34.8481779],[-58.3746444,-34.8488316],[-58.374146,-34.8494504],[-58.3739863,-34.8496551],[-58.373598,-34.8501447],[-58.3730778,-34.8508034],[-58.3726199,-34.8513969],[-58.3724721,-34.8515794],[-58.3718772,-34.8523561],[-58.3713868,-34.8529709],[-58.370889,-34.8536005],[-58.3708455,-34.8537018],[-58.3705277,-34.8541033],[-58.3704287,-34.8542237],[-58.3702899,-34.854349],[-58.3697463,-34.8550319],[-58.3688387,-34.8561961],[-58.3683545,-34.8568096],[-58.367935,-34.857341],[-58.3671045,-34.8584042],[-58.3669992,-34.8585338],[-58.3666454,-34.8589888],[-58.3660951,-34.85969],[-58.365602,-34.8603219],[-58.3650745,-34.8609843],[-58.3645249,-34.8616782],[-58.3642453,-34.8620505],[-58.3637632,-34.8626732],[-58.3628027,-34.8638991],[-58.3618837,-34.8651261],[-58.361833,-34.8651925],[-58.3610222,-34.8647803],[-58.3609887,-34.8648198],[-58.3609555,-34.8648634],[-58.3605725,-34.8653728],[-58.3604958,-34.8654839],[-58.3601466,-34.8659667],[-58.3600362,-34.8661223],[-58.3597441,-34.8665318],[-58.3593149,-34.8671168],[-58.3588698,-34.867746],[-58.3584602,-34.8683289],[-58.3578608,-34.8691419],[-58.3577461,-34.869297],[-58.3571989,-34.870044],[-58.3568437,-34.8705289],[-58.3565373,-34.8709545],[-58.356125,-34.8715272],[-58.3557728,-34.8720061],[-58.3551564,-34.8728563],[-58.3549197,-34.8731782],[-58.3548111,-34.8733304],[-58.3546247,-34.8735902],[-58.3544501,-34.8738342],[-58.3539932,-34.8744585],[-58.3539489,-34.8745182],[-58.3535859,-34.8750174],[-58.3534031,-34.8752669],[-58.3530635,-34.8757338],[-58.3528895,-34.8759765],[-58.3517789,-34.8754046],[-58.3507298,-34.8748413],[-58.349744,-34.8743168],[-58.3489296,-34.8738839],[-58.3488094,-34.87382],[-58.3478463,-34.8732979],[-58.3468765,-34.8728029],[-58.3460448,-34.8739434],[-58.3454561,-34.8747612],[-58.3448691,-34.8755589],[-58.3446662,-34.8757928],[-58.3446194,-34.8758639],[-58.3442287,-34.8764214],[-58.344345,-34.8764836],[-58.3437003,-34.8773836],[-58.3430444,-34.8782857],[-58.3423306,-34.8792524],[-58.3416284,-34.8801762],[-58.3408949,-34.8811395],[-58.3395488,-34.8829853],[-58.3389924,-34.8837667],[-58.3382927,-34.884743],[-58.3379714,-34.8851749],[-58.3377616,-34.8854617],[-58.3376565,-34.8856055],[-58.3370148,-34.8864688],[-58.3365675,-34.8870657],[-58.3362731,-34.8874738],[-58.3325787,-34.885503],[-58.3318512,-34.8851297],[-58.3288729,-34.8835308],[-58.3249479,-34.8814132],[-58.3233565,-34.8805676],[-58.3193154,-34.8784203],[-58.3185827,-34.8780309],[-58.3171886,-34.8772901],[-58.312548,-34.8747887],[-58.3144968,-34.8720091],[-58.3151385,-34.8710856],[-58.3171325,-34.8682157],[-58.3112464,-34.8650586],[-58.3063886,-34.8624529],[-58.3009668,-34.859473],[-58.3008568,-34.8594125],[-58.3002715,-34.8590892],[-58.2997123,-34.8587791],[-58.2991838,-34.858486],[-58.2983798,-34.8580402],[-58.297369,-34.8575171],[-58.2947015,-34.8561252],[-58.293902,-34.8556875],[-58.2931619,-34.8552823],[-58.292433,-34.8548732],[-58.2955002,-34.8509705],[-58.2955733,-34.8508589],[-58.2956364,-34.8507602],[-58.2957731,-34.8505486],[-58.3025825,-34.8419038],[-58.3027397,-34.8417268],[-58.3028335,-34.84164],[-58.307193,-34.836547],[-58.3091475,-34.8343423],[-58.3172663,-34.8250321],[-58.3215748,-34.8272517],[-58.3221513,-34.8264179],[-58.322389,-34.826074],[-58.322575,-34.8258051],[-58.3231925,-34.8249235],[-58.3232469,-34.8248458],[-58.3237571,-34.8241767],[-58.3252506,-34.8219969],[-58.3252963,-34.8219436],[-58.3253168,-34.8219196],[-58.3249207,-34.8216716],[-58.3245143,-34.8214171],[-58.323694,-34.8210371],[-58.3234477,-34.820923],[-58.3225917,-34.8204902],[-58.3236112,-34.8194402],[-58.3226827,-34.8189617],[-58.3228511,-34.8187297],[-58.3229825,-34.8185691],[-58.3234604,-34.817942],[-58.3241452,-34.8183361],[-58.3245365,-34.8185525],[-58.3245901,-34.8185809],[-58.3247771,-34.8186892],[-58.3248485,-34.8187015],[-58.3251122,-34.8188557],[-58.3252789,-34.8186361],[-58.3263002,-34.8191488],[-58.3266154,-34.8193072],[-58.3269695,-34.8194966],[-58.3280211,-34.8201141],[-58.3277097,-34.8204698],[-58.3292498,-34.8213078],[-58.3304385,-34.8219467],[-58.3330625,-34.8233571],[-58.3355431,-34.8247232],[-58.3363287,-34.825135],[-58.3366753,-34.8253167],[-58.3369235,-34.8254468],[-58.3370781,-34.8255314],[-58.3375509,-34.8257902],[-58.3376801,-34.8258609],[-58.3381368,-34.8260918],[-58.3389624,-34.8265041],[-58.3395741,-34.8268092],[-58.3401438,-34.8270935],[-58.3406275,-34.8273349],[-58.3408707,-34.8274614],[-58.3413758,-34.8277242],[-58.3422655,-34.8281843],[-58.3430913,-34.8286166],[-58.3453307,-34.8297398],[-58.3471591,-34.8273002],[-58.3473791,-34.8274102],[-58.3481149,-34.827777],[-58.3488511,-34.8281534],[-58.3495755,-34.8285193],[-58.350619,-34.8290571],[-58.3511735,-34.8283135],[-58.351758,-34.8275247],[-58.3523486,-34.826709],[-58.3526846,-34.8268644],[-58.3527926,-34.8269252],[-58.3531719,-34.8271207],[-58.3533566,-34.8272105],[-58.3535288,-34.8272948],[-58.3543896,-34.8277187],[-58.3550943,-34.8280731],[-58.3554254,-34.8282331],[-58.3561342,-34.828595],[-58.3566758,-34.8288609],[-58.3568437,-34.8289449],[-58.3576891,-34.8293641],[-58.35863,-34.8298244],[-58.359599,-34.8303295],[-58.360565,-34.8308166],[-58.3615305,-34.8312973],[-58.3629282,-34.8320017],[-58.3630268,-34.8320557],[-58.3639896,-34.8325625],[-58.3651083,-34.833136],[-58.3658183,-34.8335119],[-58.3666148,-34.8339179],[-58.3674115,-34.8343335],[-58.3680126,-34.8346245],[-58.3687257,-34.8349961],[-58.3696314,-34.8354668],[-58.3699606,-34.8356362],[-58.3705173,-34.8359206],[-58.3708464,-34.8360754],[-58.3718029,-34.8365838],[-58.3723544,-34.8368701],[-58.3728298,-34.837118],[-58.3738469,-34.8376265],[-58.3746731,-34.8380614],[-58.3750962,-34.8382784],[-58.3754564,-34.8384663],[-58.3763234,-34.8389124],[-58.3765829,-34.8390339],[-58.3771287,-34.8393177],[-58.377936,-34.839739],[-58.3779763,-34.83976],[-58.3780307,-34.8397885],[-58.3788498,-34.8402172],[-58.3791532,-34.84038],[-58.3803513,-34.8409776]]]]}},{"type":"Feature","properties":{"name":"Rafael Calzada","osmRelation":2532379,"osmName":"Rafael Calzada","source":"OpenStreetMap contributors"},"geometry":{"type":"MultiPolygon","coordinates":[[[[-58.3758233,-34.8021215],[-58.3751031,-34.8032729],[-58.3745233,-34.8042332],[-58.3740194,-34.8050199],[-58.3736217,-34.8056621],[-58.3735319,-34.8058147],[-58.3734937,-34.805887],[-58.3730508,-34.8067611],[-58.3728053,-34.8072375],[-58.3725699,-34.8076954],[-58.3725343,-34.8077733],[-58.3720453,-34.8088068],[-58.372013,-34.808863],[-58.3716585,-34.8094717],[-58.3712605,-34.8101045],[-58.3710825,-34.8103915],[-58.3708439,-34.8107464],[-58.3707003,-34.8109777],[-58.3704428,-34.811388],[-58.3703594,-34.8115214],[-58.370005,-34.8120592],[-58.3686106,-34.8112746],[-58.3672779,-34.8105444],[-58.3671991,-34.8105021],[-58.3661749,-34.8099543],[-58.3655369,-34.8096042],[-58.3641478,-34.8088453],[-58.3626326,-34.8080248],[-58.3611337,-34.8072076],[-58.3596288,-34.8063758],[-58.3589682,-34.806032],[-58.3581145,-34.8055683],[-58.3566184,-34.804746],[-58.3554378,-34.8041116],[-58.3550744,-34.8039168],[-58.3544831,-34.8035968],[-58.353585,-34.8031068],[-58.3528908,-34.8027279],[-58.3516632,-34.8020585],[-58.3502424,-34.8013103],[-58.3489762,-34.8006025],[-58.3482945,-34.8002283],[-58.348019,-34.8000825],[-58.3470316,-34.7995118],[-58.3465112,-34.7992453],[-58.3464734,-34.7992337],[-58.3457802,-34.7988895],[-58.3447872,-34.7983349],[-58.3446844,-34.7982771],[-58.3446357,-34.7982508],[-58.3437581,-34.7977756],[-58.3434735,-34.7976243],[-58.3433351,-34.7975465],[-58.3426944,-34.7971939],[-58.3424904,-34.7970762],[-58.3416346,-34.7966133],[-58.3414365,-34.7965085],[-58.341715,-34.7961087],[-58.3417651,-34.7960399],[-58.3422208,-34.7952647],[-58.3426132,-34.7945797],[-58.3430318,-34.7938783],[-58.342571,-34.793636],[-58.3424427,-34.7935698],[-58.3423274,-34.7935103],[-58.3421854,-34.793437],[-58.3419927,-34.7933376],[-58.3412179,-34.7929369],[-58.3399564,-34.7922868],[-58.3389827,-34.7917763],[-58.3379702,-34.7912576],[-58.3369799,-34.7907494],[-58.3358219,-34.7901541],[-58.3348609,-34.789656],[-58.3338606,-34.7891411],[-58.3327924,-34.7885899],[-58.3319009,-34.788143],[-58.3310776,-34.7877229],[-58.3304014,-34.7873792],[-58.3297661,-34.7870563],[-58.3285538,-34.7864055],[-58.3286178,-34.7863042],[-58.3288954,-34.7859023],[-58.3291624,-34.7855035],[-58.3296936,-34.7847258],[-58.3297831,-34.7846053],[-58.3298672,-34.7844874],[-58.3299253,-34.7843955],[-58.3299606,-34.784326],[-58.3300607,-34.7841001],[-58.3301037,-34.7840336],[-58.3301397,-34.7839886],[-58.3302064,-34.7839214],[-58.3304395,-34.7836931],[-58.330534,-34.7836072],[-58.3306546,-34.7834897],[-58.3312102,-34.7829265],[-58.3320283,-34.7821107],[-58.3321525,-34.7819864],[-58.332252,-34.781886],[-58.3329759,-34.781152],[-58.3330784,-34.7810435],[-58.3331625,-34.7809647],[-58.3337071,-34.7803929],[-58.3341883,-34.7799226],[-58.3346343,-34.7794609],[-58.3346732,-34.7794206],[-58.3347015,-34.7793913],[-58.3347551,-34.7793358],[-58.3346842,-34.7792971],[-58.3341046,-34.7789847],[-58.3340374,-34.7789485],[-58.3339744,-34.778913],[-58.333475,-34.7786323],[-58.3334056,-34.7785939],[-58.3333305,-34.7785527],[-58.3332641,-34.7785148],[-58.3327,-34.7781999],[-58.332644,-34.7781687],[-58.3325738,-34.7781304],[-58.3320028,-34.7778054],[-58.3319422,-34.7777716],[-58.3318634,-34.7777305],[-58.3310413,-34.7772767],[-58.3309873,-34.7772469],[-58.3309709,-34.7772379],[-58.3309058,-34.7772012],[-58.3303802,-34.7769048],[-58.3300563,-34.7767241],[-58.3299923,-34.7766876],[-58.3299147,-34.7766453],[-58.3293529,-34.7763333],[-58.3292904,-34.7762983],[-58.329227,-34.7762621],[-58.3286666,-34.7759431],[-58.3285962,-34.7759034],[-58.3285347,-34.7758698],[-58.3279148,-34.7755289],[-58.3278468,-34.7754928],[-58.3277768,-34.7754529],[-58.3271216,-34.7750949],[-58.3270322,-34.775046],[-58.3269645,-34.7750073],[-58.3261542,-34.774551],[-58.3260709,-34.774504],[-58.3260091,-34.7744692],[-58.3251856,-34.7740037],[-58.3251123,-34.7739623],[-58.3250495,-34.7739271],[-58.324587,-34.7736684],[-58.3245124,-34.7736266],[-58.3244437,-34.7735899],[-58.3236034,-34.7731413],[-58.3234956,-34.7730837],[-58.3234207,-34.7730023],[-58.3234429,-34.7729325],[-58.3234801,-34.7728284],[-58.323498,-34.7727889],[-58.3235425,-34.7727194],[-58.3239875,-34.7719795],[-58.3241236,-34.7717609],[-58.3244388,-34.7712497],[-58.3249442,-34.7704053],[-58.3249889,-34.7703335],[-58.3256033,-34.7693381],[-58.3260597,-34.768592],[-58.3261179,-34.7684959],[-58.3264592,-34.7679618],[-58.3265774,-34.7677782],[-58.326643,-34.7678251],[-58.3282355,-34.7687549],[-58.3282821,-34.7687821],[-58.3287219,-34.7690513],[-58.3287433,-34.7690648],[-58.3290163,-34.7692365],[-58.3290528,-34.7692638],[-58.3290812,-34.7692815],[-58.3291318,-34.7693179],[-58.3291629,-34.7693379],[-58.3294894,-34.7695473],[-58.3307372,-34.7703336],[-58.3309678,-34.7704687],[-58.3314326,-34.7707482],[-58.3317546,-34.7709535],[-58.3319132,-34.771036],[-58.3323943,-34.7713214],[-58.332739,-34.7715196],[-58.3328674,-34.7715934],[-58.3333516,-34.771878],[-58.3334693,-34.7719535],[-58.3335074,-34.7719765],[-58.333803,-34.7721548],[-58.3341814,-34.7724047],[-58.334419,-34.7725565],[-58.3344862,-34.7725975],[-58.3346495,-34.7726973],[-58.3357732,-34.7733669],[-58.3358721,-34.7734247],[-58.3366562,-34.7739047],[-58.3376558,-34.7745296],[-58.3379344,-34.7747044],[-58.3383706,-34.7749584],[-58.339071,-34.7754039],[-58.3397508,-34.7758033],[-58.3403165,-34.7761587],[-58.3406428,-34.7763427],[-58.341297,-34.7767369],[-58.3419223,-34.7771033],[-58.3424348,-34.777407],[-58.3431784,-34.7778784],[-58.3438654,-34.7782831],[-58.3445386,-34.7787036],[-58.3447883,-34.7788551],[-58.3452067,-34.779109],[-58.3457021,-34.7794095],[-58.3458493,-34.7794988],[-58.346573,-34.7799495],[-58.3472227,-34.7803412],[-58.3475228,-34.7805317],[-58.3478795,-34.7807438],[-58.3484239,-34.7810886],[-58.3485538,-34.7811658],[-58.3491888,-34.7815602],[-58.349342,-34.7816453],[-58.3495691,-34.781789],[-58.3502321,-34.7822002],[-58.3511576,-34.7827566],[-58.3513027,-34.7828488],[-58.3520726,-34.7833169],[-58.3523085,-34.7834639],[-58.3525641,-34.7836104],[-58.3529897,-34.7838591],[-58.353265,-34.7840305],[-58.3534106,-34.7841143],[-58.3539154,-34.7844095],[-58.35483,-34.784959],[-58.355143,-34.785144],[-58.3557299,-34.7854909],[-58.355758,-34.7855074],[-58.3566757,-34.7860684],[-58.3577171,-34.7866871],[-58.3580223,-34.7868679],[-58.3592654,-34.7875992],[-58.359351,-34.7876549],[-58.3604601,-34.7883037],[-58.3607417,-34.7884794],[-58.361615,-34.7890055],[-58.3620935,-34.789295],[-58.3624509,-34.7894974],[-58.3638947,-34.7903315],[-58.3649876,-34.7910039],[-58.3663091,-34.7917854],[-58.3675704,-34.7925425],[-58.368494,-34.793095],[-58.3688566,-34.7933126],[-58.3701362,-34.7940844],[-58.3705655,-34.7943468],[-58.3706464,-34.7943927],[-58.371094,-34.7946734],[-58.3699803,-34.7959344],[-58.3691269,-34.7969006],[-58.3682341,-34.7979251],[-58.3687242,-34.7981967],[-58.3693988,-34.7985703],[-58.3702088,-34.7990139],[-58.3706038,-34.7992327],[-58.3709959,-34.7994515],[-58.371771,-34.7998832],[-58.3725789,-34.800332],[-58.372982,-34.8005483],[-58.3733604,-34.8007573],[-58.3741653,-34.8012017],[-58.3749191,-34.801618],[-58.3758233,-34.8021215]]]]}},{"type":"Feature","properties":{"name":"San Francisco Solano","osmRelation":2532390,"osmName":"San Francisco Solano","source":"OpenStreetMap contributors"},"geometry":{"type":"MultiPolygon","coordinates":[[[[-58.3347551,-34.7793358],[-58.3347015,-34.7793913],[-58.3346732,-34.7794206],[-58.3346343,-34.7794609],[-58.3341883,-34.7799226],[-58.3337071,-34.7803929],[-58.3331625,-34.7809647],[-58.3330784,-34.7810435],[-58.3329759,-34.781152],[-58.332252,-34.781886],[-58.3321525,-34.7819864],[-58.3320283,-34.7821107],[-58.3312102,-34.7829265],[-58.3306546,-34.7834897],[-58.330534,-34.7836072],[-58.3304395,-34.7836931],[-58.3302064,-34.7839214],[-58.3301397,-34.7839886],[-58.3301037,-34.7840336],[-58.3300607,-34.7841001],[-58.3299606,-34.784326],[-58.3299253,-34.7843955],[-58.3298672,-34.7844874],[-58.3297831,-34.7846053],[-58.3296936,-34.7847258],[-58.3291624,-34.7855035],[-58.3288954,-34.7859023],[-58.3286178,-34.7863042],[-58.3285538,-34.7864055],[-58.3284805,-34.786504],[-58.3282487,-34.786854],[-58.3279329,-34.7873626],[-58.32788,-34.787451],[-58.3273939,-34.7884776],[-58.3273665,-34.788528],[-58.3273284,-34.7885843],[-58.3268174,-34.789251],[-58.3267499,-34.7893392],[-58.3266954,-34.7894103],[-58.326508,-34.7896548],[-58.3261883,-34.7900719],[-58.3260403,-34.790265],[-58.3257074,-34.7907041],[-58.3256335,-34.7908016],[-58.3256036,-34.790841],[-58.3253668,-34.7911533],[-58.3251205,-34.7914717],[-58.3244543,-34.7923474],[-58.3243765,-34.7924543],[-58.3243239,-34.7925369],[-58.3239079,-34.7930858],[-58.3235897,-34.793487],[-58.3232842,-34.7938977],[-58.3232426,-34.7939604],[-58.3232152,-34.7939891],[-58.3231558,-34.7940668],[-58.322985,-34.7942784],[-58.3229267,-34.7943571],[-58.3226949,-34.7946698],[-58.3224255,-34.7950261],[-58.3223991,-34.7950613],[-58.3218093,-34.7958296],[-58.3215719,-34.7961465],[-58.3214926,-34.796248],[-58.3213849,-34.7963958],[-58.3213464,-34.7964485],[-58.3212124,-34.7966232],[-58.3211772,-34.7967098],[-58.321143,-34.7967884],[-58.3204043,-34.7977374],[-58.3196492,-34.7986758],[-58.3183986,-34.7979961],[-58.3183328,-34.7979645],[-58.3182695,-34.7979383],[-58.3168056,-34.7971548],[-58.3166749,-34.7970644],[-58.3165841,-34.7970099],[-58.3157937,-34.7965805],[-58.3151085,-34.7962131],[-58.314298,-34.7957714],[-58.3132132,-34.7951865],[-58.3127979,-34.7949613],[-58.3122011,-34.7946454],[-58.3112722,-34.7941371],[-58.3097963,-34.7933282],[-58.3102658,-34.7926843],[-58.3107443,-34.792029],[-58.3112813,-34.7912972],[-58.3113419,-34.791216],[-58.3115714,-34.7908974],[-58.3119997,-34.7903208],[-58.3124068,-34.7897385],[-58.3128279,-34.7891556],[-58.3132467,-34.7885725],[-58.313667,-34.7879911],[-58.3140742,-34.7874168],[-58.3144927,-34.786837],[-58.3149005,-34.7862529],[-58.3153327,-34.7856748],[-58.3156571,-34.7852347],[-58.3157689,-34.785073],[-58.3161643,-34.784512],[-58.3165844,-34.7839243],[-58.317025,-34.7833109],[-58.3174116,-34.7826658],[-58.317487,-34.7825521],[-58.3177882,-34.7820364],[-58.3178744,-34.7818992],[-58.3181589,-34.7814306],[-58.3183101,-34.7811951],[-58.3187546,-34.7804649],[-58.3191518,-34.7798127],[-58.3193182,-34.7795298],[-58.3207012,-34.7770775],[-58.3211268,-34.7765017],[-58.3214897,-34.7759842],[-58.3215459,-34.7759049],[-58.3219521,-34.7753156],[-58.3222972,-34.7748242],[-58.3223375,-34.7747708],[-58.3227584,-34.7741182],[-58.3231647,-34.7734782],[-58.3233013,-34.7732714],[-58.3233577,-34.7731609],[-58.3234207,-34.7730023],[-58.3234956,-34.7730837],[-58.3236034,-34.7731413],[-58.3244437,-34.7735899],[-58.3245124,-34.7736266],[-58.324587,-34.7736684],[-58.3250495,-34.7739271],[-58.3251123,-34.7739623],[-58.3251856,-34.7740037],[-58.3260091,-34.7744692],[-58.3260709,-34.774504],[-58.3261542,-34.774551],[-58.3269645,-34.7750073],[-58.3270322,-34.775046],[-58.3271216,-34.7750949],[-58.3277768,-34.7754529],[-58.3278468,-34.7754928],[-58.3279148,-34.7755289],[-58.3285347,-34.7758698],[-58.3285962,-34.7759034],[-58.3286666,-34.7759431],[-58.329227,-34.7762621],[-58.3292904,-34.7762983],[-58.3293529,-34.7763333],[-58.3299147,-34.7766453],[-58.3299923,-34.7766876],[-58.3300563,-34.7767241],[-58.3303802,-34.7769048],[-58.3309058,-34.7772012],[-58.3309709,-34.7772379],[-58.3309873,-34.7772469],[-58.3310413,-34.7772767],[-58.3318634,-34.7777305],[-58.3319422,-34.7777716],[-58.3320028,-34.7778054],[-58.3325738,-34.7781304],[-58.332644,-34.7781687],[-58.3327,-34.7781999],[-58.3332641,-34.7785148],[-58.3333305,-34.7785527],[-58.3334056,-34.7785939],[-58.333475,-34.7786323],[-58.3339744,-34.778913],[-58.3340374,-34.7789485],[-58.3341046,-34.7789847],[-58.3346842,-34.7792971],[-58.3347551,-34.7793358]]]]}},{"type":"Feature","properties":{"name":"San José","osmRelation":2532375,"osmName":"San José","source":"OpenStreetMap contributors"},"geometry":{"type":"MultiPolygon","coordinates":[[[[-58.3619941,-34.7674096],[-58.3613218,-34.7682413],[-58.3606349,-34.7690371],[-58.3599489,-34.769841],[-58.3592994,-34.7706291],[-58.3586916,-34.7713504],[-58.3581337,-34.7720215],[-58.357996,-34.7721873],[-58.3575964,-34.7726617],[-58.3572713,-34.7730392],[-58.3570638,-34.773289],[-58.3564997,-34.7739442],[-58.3562001,-34.7737979],[-58.3555446,-34.7745436],[-58.3548975,-34.7753065],[-58.3539812,-34.7763268],[-58.3530788,-34.7773651],[-58.3526366,-34.7778683],[-58.3523026,-34.7782484],[-58.351526,-34.779149],[-58.3505634,-34.7802467],[-58.3499451,-34.7809508],[-58.349342,-34.7816453],[-58.3491888,-34.7815602],[-58.3485538,-34.7811658],[-58.3484239,-34.7810886],[-58.3478795,-34.7807438],[-58.3475228,-34.7805317],[-58.3472227,-34.7803412],[-58.346573,-34.7799495],[-58.3458493,-34.7794988],[-58.3457021,-34.7794095],[-58.3452067,-34.779109],[-58.3447883,-34.7788551],[-58.3445386,-34.7787036],[-58.3438654,-34.7782831],[-58.3431784,-34.7778784],[-58.3424348,-34.777407],[-58.3419223,-34.7771033],[-58.341297,-34.7767369],[-58.3406428,-34.7763427],[-58.3403165,-34.7761587],[-58.3397508,-34.7758033],[-58.339071,-34.7754039],[-58.3383706,-34.7749584],[-58.3379344,-34.7747044],[-58.3376558,-34.7745296],[-58.3366562,-34.7739047],[-58.3358721,-34.7734247],[-58.3357732,-34.7733669],[-58.3346495,-34.7726973],[-58.3344862,-34.7725975],[-58.334419,-34.7725565],[-58.3341814,-34.7724047],[-58.333803,-34.7721548],[-58.3335074,-34.7719765],[-58.3334693,-34.7719535],[-58.3333516,-34.771878],[-58.3328674,-34.7715934],[-58.332739,-34.7715196],[-58.3323943,-34.7713214],[-58.3319132,-34.771036],[-58.3317546,-34.7709535],[-58.3314326,-34.7707482],[-58.3309678,-34.7704687],[-58.3307372,-34.7703336],[-58.3294894,-34.7695473],[-58.3291629,-34.7693379],[-58.3291318,-34.7693179],[-58.3290812,-34.7692815],[-58.3290528,-34.7692638],[-58.3290163,-34.7692365],[-58.3287433,-34.7690648],[-58.3287219,-34.7690513],[-58.3282821,-34.7687821],[-58.3282355,-34.7687549],[-58.326643,-34.7678251],[-58.3265774,-34.7677782],[-58.3266397,-34.7676904],[-58.3267164,-34.7675822],[-58.3267338,-34.7675568],[-58.3268053,-34.7674523],[-58.3273316,-34.7667631],[-58.3278283,-34.766104],[-58.3278787,-34.7660367],[-58.3280649,-34.7657826],[-58.3284336,-34.7653103],[-58.3288681,-34.764745],[-58.3289211,-34.764675],[-58.3290646,-34.7644864],[-58.3294471,-34.7639783],[-58.3298553,-34.7634368],[-58.3299342,-34.7633377],[-58.3303966,-34.7627081],[-58.3308844,-34.7620702],[-58.33093,-34.7620122],[-58.3314102,-34.761368],[-58.3315614,-34.7611861],[-58.3318642,-34.7607855],[-58.3319316,-34.7606971],[-58.3320488,-34.760546],[-58.3325645,-34.7598774],[-58.333009,-34.7592988],[-58.3331127,-34.759159],[-58.3331924,-34.7590516],[-58.3338058,-34.7582391],[-58.3343682,-34.7575011],[-58.3344559,-34.757386],[-58.335036,-34.7566045],[-58.3356831,-34.7557672],[-58.3357319,-34.7556941],[-58.3363254,-34.7548292],[-58.3366663,-34.7543133],[-58.3367523,-34.754341],[-58.3374544,-34.7547278],[-58.338121,-34.7550803],[-58.3388273,-34.7554722],[-58.3395236,-34.7558566],[-58.3403367,-34.7562909],[-58.3411628,-34.7567411],[-58.3417267,-34.7570412],[-58.3420169,-34.7572007],[-58.3425261,-34.7574665],[-58.3430679,-34.7577745],[-58.3433203,-34.757912],[-58.3440969,-34.7583267],[-58.3450112,-34.7588148],[-58.3450619,-34.7588423],[-58.3463046,-34.7595155],[-58.3464082,-34.759548],[-58.3465094,-34.7595767],[-58.3465578,-34.7596009],[-58.3478085,-34.7602277],[-58.3491732,-34.7609247],[-58.3504989,-34.7615837],[-58.3506373,-34.7616567],[-58.3512361,-34.7619666],[-58.3520888,-34.7623783],[-58.3524212,-34.7625511],[-58.3531401,-34.7629093],[-58.3542641,-34.7634896],[-58.3554774,-34.7641],[-58.356462,-34.7645999],[-58.3574225,-34.7650931],[-58.3583946,-34.7655627],[-58.3593759,-34.7660753],[-58.3603319,-34.7665568],[-58.3610814,-34.7669483],[-58.3619941,-34.7674096]]]]}}]}